{
"type": "FeatureCollection",
"name": "border",
"crs": { "type": "name", "properties": { "name": "urn:ogc:def:crs:OGC:1.3:CRS84" } },
"features": [
{ "type": "Feature", "properties": { "id": "study_site", "isochrone": 120.0 }, "geometry": { "type": "Polygon", "coordinates": [ [ [ 41.5508, 41.5122 ], [ 41.5495, 41.517 ], [ 41.5494, 41.5174 ], [ 41.5478, 41.5174 ], [ 41.5474, 41.5171 ], [ 41.5468, 41.5174 ], [ 41.5463, 41.5173 ], [ 41.5462, 41.5172 ], [ 41.546, 41.5173 ], [ 41.5449, 41.5161 ], [ 41.5452, 41.5176 ], [ 41.5465, 41.5175 ], [ 41.5466, 41.5176 ], [ 41.5475, 41.5192 ], [ 41.5477, 41.5196 ], [ 41.548, 41.5201 ], [ 41.548, 41.5203 ], [ 41.5481, 41.5204 ], [ 41.5481, 41.5213 ], [ 41.5484, 41.5218 ], [ 41.5483, 41.522 ], [ 41.5483, 41.5224 ], [ 41.5484, 41.5224 ], [ 41.5484, 41.523 ], [ 41.5485, 41.5233 ], [ 41.5487, 41.5236 ], [ 41.5487, 41.5242 ], [ 41.5489, 41.5251 ], [ 41.5488, 41.5261 ], [ 41.5491, 41.5263 ], [ 41.5491, 41.5264 ], [ 41.5494, 41.528 ], [ 41.5513, 41.5303 ], [ 41.5528, 41.5312 ], [ 41.5536, 41.5314 ], [ 41.5536, 41.5339 ], [ 41.554, 41.5355 ], [ 41.5539, 41.5369 ], [ 41.5536, 41.5382 ], [ 41.5543, 41.5401 ], [ 41.5538, 41.5407 ], [ 41.5537, 41.5408 ], [ 41.5572, 41.5382 ], [ 41.5577, 41.539 ], [ 41.5596, 41.54 ], [ 41.5601, 41.5411 ], [ 41.5603, 41.5412 ], [ 41.5607, 41.5413 ], [ 41.5615, 41.5422 ], [ 41.5613, 41.5424 ], [ 41.5609, 41.543 ], [ 41.5607, 41.5432 ], [ 41.5602, 41.5433 ], [ 41.5626, 41.5448 ], [ 41.5624, 41.5452 ], [ 41.5624, 41.5459 ], [ 41.5624, 41.5461 ], [ 41.5624, 41.5465 ], [ 41.5628, 41.5472 ], [ 41.5629, 41.5472 ], [ 41.5634, 41.5478 ], [ 41.5631, 41.5481 ], [ 41.5631, 41.5484 ], [ 41.5631, 41.5494 ], [ 41.5635, 41.5497 ], [ 41.5639, 41.5499 ], [ 41.5644, 41.5499 ], [ 41.5643, 41.5514 ], [ 41.5644, 41.5514 ], [ 41.5644, 41.5522 ], [ 41.5656, 41.5545 ], [ 41.5656, 41.5552 ], [ 41.5656, 41.5565 ], [ 41.5654, 41.5565 ], [ 41.565, 41.5566 ], [ 41.5649, 41.5578 ], [ 41.5649, 41.558 ], [ 41.565, 41.5589 ], [ 41.5653, 41.5589 ], [ 41.5651, 41.5597 ], [ 41.5657, 41.5598 ], [ 41.566, 41.5616 ], [ 41.5655, 41.5618 ], [ 41.5657, 41.5631 ], [ 41.5659, 41.5639 ], [ 41.566, 41.5654 ], [ 41.5661, 41.5655 ], [ 41.5661, 41.5669 ], [ 41.5662, 41.5669 ], [ 41.5662, 41.5684 ], [ 41.5664, 41.5689 ], [ 41.5678, 41.5699 ], [ 41.5672, 41.5703 ], [ 41.567, 41.5707 ], [ 41.5678, 41.5718 ], [ 41.5673, 41.5722 ], [ 41.567, 41.5725 ], [ 41.5668, 41.5741 ], [ 41.5666, 41.5743 ], [ 41.5664, 41.5743 ], [ 41.5664, 41.5748 ], [ 41.5665, 41.5753 ], [ 41.5667, 41.5753 ], [ 41.5668, 41.5755 ], [ 41.5667, 41.5782 ], [ 41.5672, 41.5784 ], [ 41.5672, 41.5785 ], [ 41.567, 41.582 ], [ 41.5672, 41.5822 ], [ 41.567, 41.5826 ], [ 41.5668, 41.5828 ], [ 41.5668, 41.583 ], [ 41.5675, 41.5829 ], [ 41.5676, 41.5829 ], [ 41.568, 41.5838 ], [ 41.5689, 41.5859 ], [ 41.5683, 41.5862 ], [ 41.5679, 41.5865 ], [ 41.5765, 41.5916 ], [ 41.5765, 41.5937 ], [ 41.5761, 41.595 ], [ 41.5736, 41.5958 ], [ 41.5716, 41.5967 ], [ 41.5726, 41.6015 ], [ 41.5756, 41.6047 ], [ 41.575, 41.6057 ], [ 41.5749, 41.6061 ], [ 41.5754, 41.6064 ], [ 41.5759, 41.6058 ], [ 41.5765, 41.6057 ], [ 41.5766, 41.6057 ], [ 41.577, 41.606 ], [ 41.5772, 41.6062 ], [ 41.5767, 41.6073 ], [ 41.5773, 41.6077 ], [ 41.5787, 41.6083 ], [ 41.5792, 41.6089 ], [ 41.5791, 41.6092 ], [ 41.58, 41.6096 ], [ 41.5802, 41.6094 ], [ 41.5806, 41.6098 ], [ 41.5809, 41.6099 ], [ 41.581, 41.6099 ], [ 41.581, 41.6102 ], [ 41.582, 41.6103 ], [ 41.5825, 41.6109 ], [ 41.5836, 41.6127 ], [ 41.5838, 41.613 ], [ 41.5839, 41.613 ], [ 41.584, 41.6131 ], [ 41.5844, 41.6138 ], [ 41.5845, 41.614 ], [ 41.5848, 41.6141 ], [ 41.585, 41.6152 ], [ 41.5851, 41.6152 ], [ 41.5852, 41.6154 ], [ 41.5851, 41.6161 ], [ 41.585, 41.6162 ], [ 41.5855, 41.6167 ], [ 41.5856, 41.617 ], [ 41.5855, 41.6171 ], [ 41.5856, 41.6171 ], [ 41.586, 41.6171 ], [ 41.5868, 41.6183 ], [ 41.5869, 41.6186 ], [ 41.587, 41.6187 ], [ 41.5871, 41.6186 ], [ 41.5874, 41.6187 ], [ 41.5875, 41.6187 ], [ 41.5876, 41.6186 ], [ 41.5877, 41.6186 ], [ 41.5879, 41.6188 ], [ 41.5881, 41.6188 ], [ 41.5881, 41.6189 ], [ 41.5882, 41.6189 ], [ 41.5883, 41.619 ], [ 41.5884, 41.619 ], [ 41.5885, 41.6194 ], [ 41.5885, 41.6195 ], [ 41.5884, 41.6201 ], [ 41.5885, 41.62 ], [ 41.5886, 41.62 ], [ 41.5886, 41.6199 ], [ 41.5892, 41.6196 ], [ 41.5893, 41.6199 ], [ 41.5893, 41.6201 ], [ 41.5894, 41.6201 ], [ 41.5895, 41.6202 ], [ 41.5895, 41.6204 ], [ 41.5899, 41.6209 ], [ 41.5897, 41.621 ], [ 41.5896, 41.6212 ], [ 41.5898, 41.6211 ], [ 41.59, 41.6209 ], [ 41.5901, 41.6208 ], [ 41.5903, 41.6207 ], [ 41.5905, 41.6212 ], [ 41.5906, 41.6213 ], [ 41.5906, 41.6214 ], [ 41.5905, 41.6215 ], [ 41.5905, 41.6216 ], [ 41.5907, 41.6219 ], [ 41.5907, 41.6221 ], [ 41.5908, 41.622 ], [ 41.5914, 41.622 ], [ 41.5914, 41.6222 ], [ 41.5917, 41.6226 ], [ 41.5916, 41.6228 ], [ 41.5925, 41.6232 ], [ 41.5926, 41.6232 ], [ 41.5928, 41.6233 ], [ 41.5928, 41.6234 ], [ 41.5928, 41.6235 ], [ 41.5928, 41.6237 ], [ 41.5929, 41.6236 ], [ 41.593, 41.6236 ], [ 41.5933, 41.6238 ], [ 41.5934, 41.6239 ], [ 41.5935, 41.6238 ], [ 41.5936, 41.6238 ], [ 41.5937, 41.6241 ], [ 41.5938, 41.6242 ], [ 41.5943, 41.6246 ], [ 41.5942, 41.6247 ], [ 41.5941, 41.6248 ], [ 41.5943, 41.6247 ], [ 41.5944, 41.6247 ], [ 41.5945, 41.6247 ], [ 41.5948, 41.6245 ], [ 41.5956, 41.6246 ], [ 41.5956, 41.6247 ], [ 41.5954, 41.625 ], [ 41.5951, 41.6252 ], [ 41.595, 41.6253 ], [ 41.5955, 41.6258 ], [ 41.5955, 41.626 ], [ 41.5963, 41.6267 ], [ 41.5965, 41.6266 ], [ 41.5971, 41.6269 ], [ 41.5976, 41.6274 ], [ 41.5975, 41.6275 ], [ 41.5973, 41.6276 ], [ 41.5983, 41.6281 ], [ 41.5984, 41.6282 ], [ 41.5985, 41.6283 ], [ 41.5986, 41.6283 ], [ 41.5987, 41.6283 ], [ 41.5989, 41.6286 ], [ 41.599, 41.6286 ], [ 41.5995, 41.6291 ], [ 41.5995, 41.6292 ], [ 41.5993, 41.6296 ], [ 41.5994, 41.6296 ], [ 41.6001, 41.6298 ], [ 41.6002, 41.6297 ], [ 41.6004, 41.6296 ], [ 41.6005, 41.6295 ], [ 41.6011, 41.6299 ], [ 41.601, 41.6302 ], [ 41.6009, 41.6306 ], [ 41.601, 41.6307 ], [ 41.6012, 41.6309 ], [ 41.6015, 41.6306 ], [ 41.6016, 41.6307 ], [ 41.6018, 41.6316 ], [ 41.6019, 41.6316 ], [ 41.602, 41.6318 ], [ 41.6025, 41.6319 ], [ 41.6026, 41.632 ], [ 41.6025, 41.6324 ], [ 41.6026, 41.6324 ], [ 41.6038, 41.6328 ], [ 41.6037, 41.6331 ], [ 41.6037, 41.6334 ], [ 41.6036, 41.6335 ], [ 41.6039, 41.6333 ], [ 41.604, 41.6332 ], [ 41.6041, 41.6332 ], [ 41.6042, 41.6331 ], [ 41.6043, 41.6331 ], [ 41.6044, 41.6333 ], [ 41.6045, 41.6333 ], [ 41.6047, 41.6335 ], [ 41.6049, 41.6337 ], [ 41.6049, 41.6338 ], [ 41.6051, 41.6337 ], [ 41.6052, 41.6338 ], [ 41.6052, 41.6339 ], [ 41.6054, 41.634 ], [ 41.6062, 41.6347 ], [ 41.6064, 41.6356 ], [ 41.6063, 41.6357 ], [ 41.6062, 41.6359 ], [ 41.6061, 41.636 ], [ 41.606, 41.636 ], [ 41.6073, 41.637 ], [ 41.6074, 41.637 ], [ 41.6076, 41.6367 ], [ 41.608, 41.6364 ], [ 41.6082, 41.6364 ], [ 41.6083, 41.6363 ], [ 41.6085, 41.6365 ], [ 41.6088, 41.6367 ], [ 41.609, 41.6369 ], [ 41.6091, 41.6369 ], [ 41.6091, 41.6371 ], [ 41.6088, 41.6373 ], [ 41.6085, 41.6374 ], [ 41.6084, 41.6376 ], [ 41.6083, 41.6377 ], [ 41.6082, 41.6378 ], [ 41.6089, 41.6385 ], [ 41.609, 41.6384 ], [ 41.6094, 41.6389 ], [ 41.6095, 41.6388 ], [ 41.6098, 41.6387 ], [ 41.6102, 41.639 ], [ 41.6103, 41.639 ], [ 41.6105, 41.6392 ], [ 41.6104, 41.6397 ], [ 41.6108, 41.6401 ], [ 41.6109, 41.64 ], [ 41.6111, 41.6399 ], [ 41.6112, 41.6399 ], [ 41.6113, 41.64 ], [ 41.6114, 41.6404 ], [ 41.6113, 41.6405 ], [ 41.6114, 41.6406 ], [ 41.6115, 41.6408 ], [ 41.6117, 41.6408 ], [ 41.6117, 41.6409 ], [ 41.6123, 41.6412 ], [ 41.6123, 41.6413 ], [ 41.6128, 41.6417 ], [ 41.6129, 41.6418 ], [ 41.613, 41.6418 ], [ 41.6134, 41.6423 ], [ 41.6135, 41.6422 ], [ 41.6136, 41.6422 ], [ 41.6146, 41.6431 ], [ 41.6149, 41.6433 ], [ 41.6149, 41.6434 ], [ 41.6154, 41.6437 ], [ 41.6155, 41.6437 ], [ 41.6155, 41.6439 ], [ 41.6166, 41.6448 ], [ 41.6161, 41.6452 ], [ 41.6175, 41.6455 ], [ 41.6176, 41.6455 ], [ 41.6181, 41.646 ], [ 41.6182, 41.646 ], [ 41.6184, 41.6462 ], [ 41.6185, 41.6462 ], [ 41.6186, 41.6461 ], [ 41.6187, 41.646 ], [ 41.6188, 41.6459 ], [ 41.6189, 41.6459 ], [ 41.619, 41.646 ], [ 41.6191, 41.6459 ], [ 41.6194, 41.6461 ], [ 41.6193, 41.6462 ], [ 41.6197, 41.647 ], [ 41.6198, 41.647 ], [ 41.6199, 41.6469 ], [ 41.6202, 41.6469 ], [ 41.6203, 41.647 ], [ 41.6204, 41.6472 ], [ 41.6204, 41.6474 ], [ 41.6203, 41.6475 ], [ 41.621, 41.6474 ], [ 41.6215, 41.6474 ], [ 41.6219, 41.6485 ], [ 41.622, 41.6485 ], [ 41.6221, 41.6484 ], [ 41.6222, 41.6483 ], [ 41.6229, 41.6489 ], [ 41.6228, 41.649 ], [ 41.6228, 41.6491 ], [ 41.6233, 41.6494 ], [ 41.6234, 41.6493 ], [ 41.624, 41.6499 ], [ 41.6241, 41.6498 ], [ 41.6243, 41.6501 ], [ 41.6244, 41.6501 ], [ 41.6247, 41.6504 ], [ 41.6248, 41.6503 ], [ 41.6249, 41.6502 ], [ 41.625, 41.6501 ], [ 41.6252, 41.6501 ], [ 41.6252, 41.6502 ], [ 41.6256, 41.6506 ], [ 41.6256, 41.6507 ], [ 41.6255, 41.6508 ], [ 41.6254, 41.6509 ], [ 41.626, 41.6512 ], [ 41.6261, 41.651 ], [ 41.6262, 41.6508 ], [ 41.6264, 41.6506 ], [ 41.6268, 41.6508 ], [ 41.6269, 41.6507 ], [ 41.627, 41.6507 ], [ 41.6272, 41.6509 ], [ 41.6272, 41.651 ], [ 41.6273, 41.651 ], [ 41.6278, 41.6515 ], [ 41.6277, 41.6516 ], [ 41.6276, 41.6517 ], [ 41.6275, 41.652 ], [ 41.6274, 41.652 ], [ 41.627, 41.6524 ], [ 41.6269, 41.6525 ], [ 41.6277, 41.6531 ], [ 41.629, 41.6537 ], [ 41.6294, 41.6531 ], [ 41.6295, 41.6531 ], [ 41.6295, 41.653 ], [ 41.6298, 41.6527 ], [ 41.6309, 41.6538 ], [ 41.6316, 41.6542 ], [ 41.6317, 41.6542 ], [ 41.6319, 41.6539 ], [ 41.632, 41.6538 ], [ 41.6325, 41.6539 ], [ 41.6328, 41.6548 ], [ 41.6327, 41.6549 ], [ 41.6326, 41.6552 ], [ 41.633, 41.6555 ], [ 41.6336, 41.656 ], [ 41.6333, 41.6563 ], [ 41.6333, 41.6564 ], [ 41.6332, 41.6565 ], [ 41.6338, 41.6559 ], [ 41.634, 41.6556 ], [ 41.6341, 41.6555 ], [ 41.6342, 41.6555 ], [ 41.6344, 41.6552 ], [ 41.6345, 41.6551 ], [ 41.6346, 41.6551 ], [ 41.6355, 41.6562 ], [ 41.6355, 41.6563 ], [ 41.6368, 41.6568 ], [ 41.6371, 41.6564 ], [ 41.6378, 41.657 ], [ 41.6379, 41.6568 ], [ 41.6385, 41.657 ], [ 41.6386, 41.657 ], [ 41.6391, 41.657 ], [ 41.6411, 41.6556 ], [ 41.6414, 41.656 ], [ 41.6414, 41.6561 ], [ 41.6415, 41.656 ], [ 41.6409, 41.6553 ], [ 41.641, 41.6552 ], [ 41.6412, 41.655 ], [ 41.6413, 41.6551 ], [ 41.6416, 41.655 ], [ 41.6416, 41.6549 ], [ 41.6419, 41.6549 ], [ 41.6425, 41.655 ], [ 41.6428, 41.6549 ], [ 41.6429, 41.6549 ], [ 41.6431, 41.6551 ], [ 41.6429, 41.6556 ], [ 41.6434, 41.6558 ], [ 41.643, 41.6547 ], [ 41.6425, 41.6543 ], [ 41.6426, 41.654 ], [ 41.6429, 41.6534 ], [ 41.6431, 41.6534 ], [ 41.6432, 41.6532 ], [ 41.6434, 41.6529 ], [ 41.6443, 41.653 ], [ 41.644, 41.6517 ], [ 41.6443, 41.6513 ], [ 41.6443, 41.6512 ], [ 41.6441, 41.6511 ], [ 41.6439, 41.6511 ], [ 41.6437, 41.6511 ], [ 41.6438, 41.6507 ], [ 41.644, 41.6507 ], [ 41.6442, 41.6507 ], [ 41.6444, 41.6506 ], [ 41.6445, 41.6506 ], [ 41.6448, 41.65 ], [ 41.6449, 41.65 ], [ 41.6448, 41.6499 ], [ 41.6448, 41.6496 ], [ 41.645, 41.6496 ], [ 41.6451, 41.6496 ], [ 41.6451, 41.6494 ], [ 41.6488, 41.6495 ], [ 41.6492, 41.6497 ], [ 41.6492, 41.6498 ], [ 41.6496, 41.6498 ], [ 41.6497, 41.6498 ], [ 41.6548, 41.6505 ], [ 41.655, 41.6506 ], [ 41.6556, 41.6506 ], [ 41.6564, 41.6506 ], [ 41.6578, 41.6513 ], [ 41.659, 41.6504 ], [ 41.6588, 41.6494 ], [ 41.6589, 41.6492 ], [ 41.659, 41.649 ], [ 41.6591, 41.6489 ], [ 41.6591, 41.6487 ], [ 41.6597, 41.6482 ], [ 41.6597, 41.6481 ], [ 41.6605, 41.6481 ], [ 41.6609, 41.6477 ], [ 41.6611, 41.6476 ], [ 41.6612, 41.6477 ], [ 41.6613, 41.6477 ], [ 41.6614, 41.6478 ], [ 41.6616, 41.649 ], [ 41.6626, 41.6495 ], [ 41.6629, 41.6495 ], [ 41.6635, 41.6491 ], [ 41.6636, 41.6491 ], [ 41.6638, 41.6492 ], [ 41.6639, 41.6494 ], [ 41.664, 41.6493 ], [ 41.6643, 41.6495 ], [ 41.6644, 41.6495 ], [ 41.6644, 41.6499 ], [ 41.6644, 41.6501 ], [ 41.6651, 41.6497 ], [ 41.6654, 41.6497 ], [ 41.6661, 41.6499 ], [ 41.6666, 41.6501 ], [ 41.6667, 41.6505 ], [ 41.6672, 41.6508 ], [ 41.6674, 41.651 ], [ 41.6663, 41.652 ], [ 41.6679, 41.6536 ], [ 41.668, 41.6536 ], [ 41.6675, 41.6517 ], [ 41.6684, 41.6516 ], [ 41.6685, 41.6515 ], [ 41.6687, 41.6514 ], [ 41.6688, 41.6515 ], [ 41.6689, 41.6515 ], [ 41.6692, 41.6521 ], [ 41.6693, 41.652 ], [ 41.6694, 41.6519 ], [ 41.6699, 41.6522 ], [ 41.6702, 41.6529 ], [ 41.6704, 41.6528 ], [ 41.6705, 41.6527 ], [ 41.6706, 41.6527 ], [ 41.6709, 41.6525 ], [ 41.6712, 41.6532 ], [ 41.6715, 41.6538 ], [ 41.6716, 41.6538 ], [ 41.6721, 41.6543 ], [ 41.6723, 41.6542 ], [ 41.6724, 41.6542 ], [ 41.6725, 41.6541 ], [ 41.6726, 41.654 ], [ 41.6728, 41.6538 ], [ 41.6729, 41.6539 ], [ 41.6731, 41.654 ], [ 41.6735, 41.6543 ], [ 41.6734, 41.6544 ], [ 41.6737, 41.6558 ], [ 41.675, 41.655 ], [ 41.6751, 41.655 ], [ 41.6753, 41.6552 ], [ 41.6755, 41.6557 ], [ 41.6753, 41.6559 ], [ 41.6753, 41.656 ], [ 41.6754, 41.6566 ], [ 41.6755, 41.6571 ], [ 41.676, 41.6577 ], [ 41.6762, 41.658 ], [ 41.6765, 41.6582 ], [ 41.6768, 41.6582 ], [ 41.6773, 41.6587 ], [ 41.6777, 41.659 ], [ 41.6777, 41.6594 ], [ 41.6776, 41.6595 ], [ 41.6775, 41.6595 ], [ 41.6775, 41.6596 ], [ 41.6775, 41.6597 ], [ 41.6776, 41.66 ], [ 41.6777, 41.66 ], [ 41.6778, 41.6599 ], [ 41.6779, 41.6599 ], [ 41.6784, 41.6605 ], [ 41.6787, 41.6605 ], [ 41.6788, 41.6607 ], [ 41.6789, 41.6608 ], [ 41.6789, 41.661 ], [ 41.6786, 41.6611 ], [ 41.6787, 41.6611 ], [ 41.6788, 41.6611 ], [ 41.679, 41.6612 ], [ 41.6791, 41.6614 ], [ 41.679, 41.6615 ], [ 41.6792, 41.6617 ], [ 41.6791, 41.6618 ], [ 41.6792, 41.6618 ], [ 41.6793, 41.6618 ], [ 41.6794, 41.6616 ], [ 41.68, 41.6621 ], [ 41.6798, 41.6625 ], [ 41.6799, 41.6627 ], [ 41.678, 41.6636 ], [ 41.6793, 41.6643 ], [ 41.6802, 41.664 ], [ 41.6808, 41.664 ], [ 41.6812, 41.6651 ], [ 41.6826, 41.6663 ], [ 41.6831, 41.667 ], [ 41.6844, 41.6674 ], [ 41.6853, 41.6675 ], [ 41.6859, 41.6672 ], [ 41.6867, 41.6676 ], [ 41.6868, 41.6677 ], [ 41.6866, 41.6681 ], [ 41.687, 41.668 ], [ 41.6873, 41.6689 ], [ 41.6875, 41.6694 ], [ 41.6878, 41.6693 ], [ 41.6879, 41.6693 ], [ 41.6886, 41.6694 ], [ 41.6887, 41.6695 ], [ 41.6888, 41.6695 ], [ 41.6889, 41.6698 ], [ 41.6885, 41.6706 ], [ 41.6886, 41.6705 ], [ 41.6887, 41.6705 ], [ 41.6898, 41.6707 ], [ 41.6897, 41.671 ], [ 41.69, 41.6718 ], [ 41.6911, 41.672 ], [ 41.6916, 41.6725 ], [ 41.6914, 41.6727 ], [ 41.6915, 41.673 ], [ 41.6922, 41.6734 ], [ 41.6923, 41.6733 ], [ 41.6924, 41.6732 ], [ 41.6925, 41.6732 ], [ 41.6932, 41.6743 ], [ 41.6935, 41.6742 ], [ 41.6937, 41.6742 ], [ 41.6945, 41.6751 ], [ 41.6947, 41.675 ], [ 41.6953, 41.676 ], [ 41.6952, 41.6762 ], [ 41.6952, 41.6763 ], [ 41.6949, 41.6764 ], [ 41.695, 41.6764 ], [ 41.6951, 41.6764 ], [ 41.6952, 41.6764 ], [ 41.6953, 41.6764 ], [ 41.6954, 41.6764 ], [ 41.6956, 41.6774 ], [ 41.6958, 41.6773 ], [ 41.696, 41.6772 ], [ 41.6961, 41.6772 ], [ 41.6963, 41.6772 ], [ 41.6964, 41.6779 ], [ 41.6966, 41.6778 ], [ 41.6967, 41.6778 ], [ 41.6968, 41.6782 ], [ 41.6968, 41.6785 ], [ 41.697, 41.6784 ], [ 41.6971, 41.6784 ], [ 41.6972, 41.6788 ], [ 41.6971, 41.6789 ], [ 41.6974, 41.6793 ], [ 41.6973, 41.6794 ], [ 41.6975, 41.6797 ], [ 41.6977, 41.6797 ], [ 41.6979, 41.6797 ], [ 41.698, 41.6805 ], [ 41.6978, 41.6807 ], [ 41.6982, 41.6809 ], [ 41.6984, 41.6808 ], [ 41.6988, 41.6804 ], [ 41.6995, 41.6814 ], [ 41.7002, 41.6814 ], [ 41.7003, 41.6816 ], [ 41.7002, 41.682 ], [ 41.7001, 41.6822 ], [ 41.7001, 41.6825 ], [ 41.7001, 41.6826 ], [ 41.6997, 41.6837 ], [ 41.7, 41.6839 ], [ 41.7, 41.6844 ], [ 41.7003, 41.6846 ], [ 41.7008, 41.6855 ], [ 41.7013, 41.6859 ], [ 41.7016, 41.6859 ], [ 41.7018, 41.6858 ], [ 41.702, 41.6858 ], [ 41.702, 41.6859 ], [ 41.7024, 41.686 ], [ 41.7026, 41.6862 ], [ 41.7024, 41.6867 ], [ 41.7022, 41.6871 ], [ 41.7024, 41.6871 ], [ 41.7025, 41.687 ], [ 41.7027, 41.6873 ], [ 41.7027, 41.6875 ], [ 41.7026, 41.6876 ], [ 41.7024, 41.6877 ], [ 41.7027, 41.6883 ], [ 41.7038, 41.6895 ], [ 41.7044, 41.6901 ], [ 41.7045, 41.6901 ], [ 41.7046, 41.6902 ], [ 41.7049, 41.6904 ], [ 41.7049, 41.6908 ], [ 41.7049, 41.6909 ], [ 41.7047, 41.691 ], [ 41.7035, 41.6917 ], [ 41.7043, 41.6916 ], [ 41.7043, 41.6915 ], [ 41.7049, 41.6914 ], [ 41.705, 41.6914 ], [ 41.7052, 41.6917 ], [ 41.7052, 41.6918 ], [ 41.7055, 41.6918 ], [ 41.7057, 41.6918 ], [ 41.7058, 41.6917 ], [ 41.7059, 41.6916 ], [ 41.7063, 41.692 ], [ 41.7062, 41.6922 ], [ 41.7058, 41.6931 ], [ 41.7058, 41.6933 ], [ 41.7058, 41.6939 ], [ 41.7066, 41.6946 ], [ 41.7074, 41.6953 ], [ 41.7076, 41.6952 ], [ 41.708, 41.6951 ], [ 41.7084, 41.6956 ], [ 41.7091, 41.6954 ], [ 41.7095, 41.695 ], [ 41.7097, 41.695 ], [ 41.7112, 41.6949 ], [ 41.7112, 41.6955 ], [ 41.713, 41.6965 ], [ 41.7131, 41.6966 ], [ 41.7129, 41.6969 ], [ 41.7135, 41.6986 ], [ 41.7144, 41.6997 ], [ 41.7154, 41.7008 ], [ 41.7154, 41.7009 ], [ 41.7171, 41.7037 ], [ 41.7175, 41.7035 ], [ 41.7178, 41.7035 ], [ 41.718, 41.7042 ], [ 41.7185, 41.7053 ], [ 41.7185, 41.7057 ], [ 41.7185, 41.7058 ], [ 41.7186, 41.7058 ], [ 41.7188, 41.7057 ], [ 41.7189, 41.7057 ], [ 41.719, 41.7056 ], [ 41.7191, 41.7056 ], [ 41.7194, 41.7053 ], [ 41.7195, 41.7054 ], [ 41.7196, 41.7053 ], [ 41.7199, 41.7055 ], [ 41.72, 41.7056 ], [ 41.7203, 41.7063 ], [ 41.7202, 41.7068 ], [ 41.7204, 41.7078 ], [ 41.7209, 41.7085 ], [ 41.7207, 41.7088 ], [ 41.7206, 41.7092 ], [ 41.7224, 41.7105 ], [ 41.7227, 41.7108 ], [ 41.7217, 41.7113 ], [ 41.7218, 41.7114 ], [ 41.7218, 41.7119 ], [ 41.7222, 41.7121 ], [ 41.7226, 41.7128 ], [ 41.7227, 41.713 ], [ 41.7229, 41.7133 ], [ 41.7229, 41.7143 ], [ 41.7235, 41.7143 ], [ 41.7237, 41.7162 ], [ 41.7252, 41.7176 ], [ 41.7254, 41.7176 ], [ 41.7253, 41.7193 ], [ 41.7254, 41.7194 ], [ 41.7254, 41.7197 ], [ 41.7256, 41.7197 ], [ 41.7257, 41.7201 ], [ 41.7258, 41.7203 ], [ 41.7261, 41.7205 ], [ 41.7266, 41.7211 ], [ 41.7265, 41.7212 ], [ 41.7266, 41.7214 ], [ 41.7267, 41.7216 ], [ 41.7266, 41.7218 ], [ 41.727, 41.7222 ], [ 41.727, 41.7227 ], [ 41.7273, 41.7227 ], [ 41.7275, 41.723 ], [ 41.7275, 41.7236 ], [ 41.7277, 41.7241 ], [ 41.7276, 41.7244 ], [ 41.7283, 41.7255 ], [ 41.7288, 41.7258 ], [ 41.7289, 41.7261 ], [ 41.7289, 41.7264 ], [ 41.7288, 41.7266 ], [ 41.729, 41.727 ], [ 41.729, 41.7271 ], [ 41.7293, 41.7275 ], [ 41.7295, 41.728 ], [ 41.7296, 41.7281 ], [ 41.7306, 41.7288 ], [ 41.7306, 41.7295 ], [ 41.7306, 41.7296 ], [ 41.7307, 41.7297 ], [ 41.7306, 41.7304 ], [ 41.7309, 41.7303 ], [ 41.7315, 41.7307 ], [ 41.7316, 41.7306 ], [ 41.7326, 41.7306 ], [ 41.7328, 41.7311 ], [ 41.7321, 41.7329 ], [ 41.7322, 41.733 ], [ 41.7323, 41.733 ], [ 41.7325, 41.733 ], [ 41.7326, 41.7332 ], [ 41.7325, 41.7336 ], [ 41.7324, 41.7337 ], [ 41.7325, 41.7337 ], [ 41.7327, 41.7339 ], [ 41.7327, 41.7341 ], [ 41.7338, 41.7351 ], [ 41.7336, 41.7355 ], [ 41.7338, 41.7355 ], [ 41.734, 41.7356 ], [ 41.7339, 41.7365 ], [ 41.7343, 41.7364 ], [ 41.7342, 41.7376 ], [ 41.7345, 41.7375 ], [ 41.7346, 41.7375 ], [ 41.7346, 41.7385 ], [ 41.7348, 41.7385 ], [ 41.7348, 41.7386 ], [ 41.7352, 41.7395 ], [ 41.7353, 41.7399 ], [ 41.7352, 41.74 ], [ 41.735, 41.7402 ], [ 41.7351, 41.7403 ], [ 41.7352, 41.7408 ], [ 41.7353, 41.7408 ], [ 41.7354, 41.7408 ], [ 41.7358, 41.7413 ], [ 41.7365, 41.7417 ], [ 41.7366, 41.7418 ], [ 41.7367, 41.7433 ], [ 41.7368, 41.7433 ], [ 41.7368, 41.7436 ], [ 41.7369, 41.7437 ], [ 41.737, 41.7437 ], [ 41.7375, 41.7443 ], [ 41.7375, 41.7444 ], [ 41.7373, 41.7444 ], [ 41.7371, 41.7447 ], [ 41.7382, 41.7453 ], [ 41.738, 41.7461 ], [ 41.7383, 41.7463 ], [ 41.7378, 41.7469 ], [ 41.7383, 41.7474 ], [ 41.7381, 41.7477 ], [ 41.7385, 41.7483 ], [ 41.7386, 41.7487 ], [ 41.7387, 41.7487 ], [ 41.7388, 41.7487 ], [ 41.7388, 41.7492 ], [ 41.74, 41.7502 ], [ 41.7402, 41.7514 ], [ 41.7399, 41.7514 ], [ 41.7397, 41.752 ], [ 41.74, 41.752 ], [ 41.7401, 41.7522 ], [ 41.7402, 41.7525 ], [ 41.7404, 41.7527 ], [ 41.7406, 41.7526 ], [ 41.7407, 41.7527 ], [ 41.7407, 41.7532 ], [ 41.7407, 41.7533 ], [ 41.7406, 41.7534 ], [ 41.7409, 41.754 ], [ 41.7409, 41.7547 ], [ 41.7411, 41.7548 ], [ 41.7412, 41.7548 ], [ 41.7418, 41.7549 ], [ 41.742, 41.7555 ], [ 41.7414, 41.7567 ], [ 41.7415, 41.7568 ], [ 41.7417, 41.7572 ], [ 41.7422, 41.7577 ], [ 41.7423, 41.758 ], [ 41.7423, 41.7586 ], [ 41.7424, 41.7586 ], [ 41.7426, 41.7583 ], [ 41.7427, 41.7582 ], [ 41.7436, 41.7585 ], [ 41.7436, 41.7586 ], [ 41.7435, 41.7587 ], [ 41.7442, 41.759 ], [ 41.745, 41.7589 ], [ 41.746, 41.7594 ], [ 41.746, 41.7595 ], [ 41.7465, 41.7598 ], [ 41.7466, 41.7598 ], [ 41.7466, 41.76 ], [ 41.7465, 41.7601 ], [ 41.7463, 41.7602 ], [ 41.7462, 41.7603 ], [ 41.7464, 41.7606 ], [ 41.7465, 41.7606 ], [ 41.7466, 41.7606 ], [ 41.7467, 41.7606 ], [ 41.7467, 41.7609 ], [ 41.7468, 41.7609 ], [ 41.7469, 41.7609 ], [ 41.7495, 41.7637 ], [ 41.7496, 41.7637 ], [ 41.7498, 41.7645 ], [ 41.7504, 41.7652 ], [ 41.7505, 41.7652 ], [ 41.7506, 41.7652 ], [ 41.7507, 41.7652 ], [ 41.7508, 41.7654 ], [ 41.751, 41.7653 ], [ 41.7511, 41.7654 ], [ 41.751, 41.7666 ], [ 41.7512, 41.7666 ], [ 41.7521, 41.7673 ], [ 41.753, 41.7673 ], [ 41.7529, 41.7676 ], [ 41.7532, 41.7675 ], [ 41.7537, 41.7672 ], [ 41.7538, 41.7673 ], [ 41.7542, 41.7675 ], [ 41.7543, 41.7676 ], [ 41.7544, 41.7677 ], [ 41.7551, 41.7685 ], [ 41.7556, 41.77 ], [ 41.7557, 41.7725 ], [ 41.7564, 41.7723 ], [ 41.7565, 41.7725 ], [ 41.7567, 41.7744 ], [ 41.7568, 41.7746 ], [ 41.7569, 41.7746 ], [ 41.757, 41.7747 ], [ 41.757, 41.7748 ], [ 41.7571, 41.7749 ], [ 41.7571, 41.775 ], [ 41.7572, 41.7752 ], [ 41.7569, 41.7763 ], [ 41.7571, 41.7775 ], [ 41.758, 41.7772 ], [ 41.7581, 41.7774 ], [ 41.7595, 41.778 ], [ 41.7603, 41.7829 ], [ 41.7614, 41.7837 ], [ 41.7627, 41.7873 ], [ 41.7634, 41.7878 ], [ 41.7669, 41.7931 ], [ 41.7657, 41.7941 ], [ 41.7653, 41.7945 ], [ 41.7662, 41.7956 ], [ 41.7671, 41.7963 ], [ 41.7681, 41.7984 ], [ 41.7687, 41.7996 ], [ 41.7691, 41.8032 ], [ 41.7693, 41.8033 ], [ 41.7697, 41.8034 ], [ 41.7706, 41.8062 ], [ 41.7711, 41.8079 ], [ 41.7715, 41.8083 ], [ 41.7717, 41.8091 ], [ 41.7721, 41.8091 ], [ 41.772, 41.8104 ], [ 41.7723, 41.8103 ], [ 41.7724, 41.8104 ], [ 41.7724, 41.8106 ], [ 41.7725, 41.8108 ], [ 41.7722, 41.8116 ], [ 41.7725, 41.8116 ], [ 41.7726, 41.8121 ], [ 41.7727, 41.8121 ], [ 41.7727, 41.8127 ], [ 41.7726, 41.8133 ], [ 41.7728, 41.8133 ], [ 41.7729, 41.8133 ], [ 41.7729, 41.8139 ], [ 41.773, 41.8139 ], [ 41.773, 41.8144 ], [ 41.773, 41.8159 ], [ 41.7729, 41.8162 ], [ 41.7729, 41.8163 ], [ 41.7732, 41.8164 ], [ 41.7733, 41.8164 ], [ 41.7735, 41.8175 ], [ 41.7739, 41.8177 ], [ 41.7739, 41.8179 ], [ 41.7739, 41.8181 ], [ 41.7736, 41.8187 ], [ 41.7734, 41.8188 ], [ 41.7734, 41.8189 ], [ 41.7737, 41.8189 ], [ 41.7738, 41.8199 ], [ 41.7737, 41.8207 ], [ 41.7739, 41.8207 ], [ 41.7742, 41.8206 ], [ 41.7748, 41.8206 ], [ 41.775, 41.821 ], [ 41.7751, 41.8211 ], [ 41.7748, 41.8215 ], [ 41.7746, 41.8216 ], [ 41.7741, 41.8218 ], [ 41.7743, 41.8237 ], [ 41.7744, 41.8237 ], [ 41.7744, 41.8243 ], [ 41.775, 41.8249 ], [ 41.7753, 41.8255 ], [ 41.7752, 41.8257 ], [ 41.776, 41.8261 ], [ 41.776, 41.8264 ], [ 41.7761, 41.8269 ], [ 41.7761, 41.8273 ], [ 41.775, 41.8285 ], [ 41.7753, 41.8306 ], [ 41.7756, 41.8312 ], [ 41.7757, 41.8326 ], [ 41.7756, 41.833 ], [ 41.7758, 41.8344 ], [ 41.7759, 41.8344 ], [ 41.776, 41.835 ], [ 41.776, 41.8351 ], [ 41.776, 41.8357 ], [ 41.776, 41.8358 ], [ 41.776, 41.8361 ], [ 41.7761, 41.8362 ], [ 41.7761, 41.8364 ], [ 41.7761, 41.8368 ], [ 41.7761, 41.8371 ], [ 41.7763, 41.8371 ], [ 41.7762, 41.8376 ], [ 41.7763, 41.8379 ], [ 41.7764, 41.8379 ], [ 41.778, 41.8386 ], [ 41.7781, 41.8389 ], [ 41.7785, 41.8418 ], [ 41.7771, 41.8443 ], [ 41.7772, 41.8447 ], [ 41.7768, 41.8453 ], [ 41.7775, 41.8461 ], [ 41.7773, 41.8464 ], [ 41.7774, 41.8465 ], [ 41.7776, 41.8469 ], [ 41.7774, 41.8473 ], [ 41.7775, 41.8474 ], [ 41.7777, 41.8474 ], [ 41.7776, 41.8484 ], [ 41.7776, 41.8486 ], [ 41.7776, 41.8487 ], [ 41.7796, 41.8527 ], [ 41.7796, 41.8536 ], [ 41.7781, 41.8537 ], [ 41.7783, 41.8561 ], [ 41.7784, 41.8582 ], [ 41.7782, 41.8613 ], [ 41.7782, 41.862 ], [ 41.7797, 41.8634 ], [ 41.7791, 41.8664 ], [ 41.779, 41.8671 ], [ 41.778, 41.8671 ], [ 41.7777, 41.8684 ], [ 41.7775, 41.8687 ], [ 41.7773, 41.8692 ], [ 41.7773, 41.8694 ], [ 41.7769, 41.8702 ], [ 41.7767, 41.871 ], [ 41.7766, 41.871 ], [ 41.7764, 41.8719 ], [ 41.7763, 41.8719 ], [ 41.7759, 41.8732 ], [ 41.7757, 41.8734 ], [ 41.776, 41.8744 ], [ 41.7757, 41.8745 ], [ 41.7758, 41.8748 ], [ 41.7755, 41.8753 ], [ 41.7755, 41.8755 ], [ 41.7753, 41.8759 ], [ 41.775, 41.8765 ], [ 41.7745, 41.8767 ], [ 41.7745, 41.8773 ], [ 41.7747, 41.8779 ], [ 41.7743, 41.8788 ], [ 41.7743, 41.879 ], [ 41.774, 41.8799 ], [ 41.7743, 41.8808 ], [ 41.7739, 41.8809 ], [ 41.7734, 41.8821 ], [ 41.7736, 41.8824 ], [ 41.7737, 41.8841 ], [ 41.7731, 41.8845 ], [ 41.7734, 41.8854 ], [ 41.7733, 41.8862 ], [ 41.7732, 41.8871 ], [ 41.7728, 41.8871 ], [ 41.7738, 41.889 ], [ 41.7738, 41.8894 ], [ 41.7736, 41.8906 ], [ 41.7724, 41.8924 ], [ 41.773, 41.893 ], [ 41.7711, 41.8958 ], [ 41.7714, 41.896 ], [ 41.7718, 41.8967 ], [ 41.7717, 41.8968 ], [ 41.7717, 41.897 ], [ 41.772, 41.8981 ], [ 41.772, 41.8982 ], [ 41.7719, 41.8983 ], [ 41.7718, 41.8984 ], [ 41.7713, 41.8991 ], [ 41.7717, 41.9001 ], [ 41.7716, 41.9006 ], [ 41.7714, 41.9014 ], [ 41.7712, 41.9027 ], [ 41.7711, 41.9029 ], [ 41.7711, 41.9031 ], [ 41.7711, 41.9044 ], [ 41.771, 41.9053 ], [ 41.771, 41.9055 ], [ 41.7707, 41.907 ], [ 41.7706, 41.9076 ], [ 41.7704, 41.9081 ], [ 41.7692, 41.9124 ], [ 41.7699, 41.9125 ], [ 41.7701, 41.9131 ], [ 41.7698, 41.9146 ], [ 41.7696, 41.9155 ], [ 41.7691, 41.9163 ], [ 41.7677, 41.9165 ], [ 41.7671, 41.9222 ], [ 41.7676, 41.9234 ], [ 41.7676, 41.9235 ], [ 41.7675, 41.9246 ], [ 41.7667, 41.9254 ], [ 41.7671, 41.9258 ], [ 41.7673, 41.926 ], [ 41.7664, 41.9269 ], [ 41.7671, 41.9301 ], [ 41.7663, 41.9301 ], [ 41.7661, 41.9315 ], [ 41.7661, 41.9318 ], [ 41.7662, 41.9321 ], [ 41.7662, 41.9322 ], [ 41.7661, 41.9327 ], [ 41.766, 41.9337 ], [ 41.7665, 41.934 ], [ 41.7664, 41.9343 ], [ 41.7663, 41.9352 ], [ 41.7662, 41.9356 ], [ 41.7661, 41.9364 ], [ 41.7655, 41.937 ], [ 41.7656, 41.9372 ], [ 41.7656, 41.9387 ], [ 41.7653, 41.9388 ], [ 41.7653, 41.9391 ], [ 41.7656, 41.9398 ], [ 41.7661, 41.9405 ], [ 41.765, 41.9419 ], [ 41.7698, 41.9432 ], [ 41.7698, 41.9433 ], [ 41.7685, 41.9448 ], [ 41.7662, 41.9516 ], [ 41.7657, 41.9516 ], [ 41.7652, 41.952 ], [ 41.7648, 41.952 ], [ 41.7647, 41.952 ], [ 41.7646, 41.952 ], [ 41.7644, 41.952 ], [ 41.7644, 41.9513 ], [ 41.7644, 41.9514 ], [ 41.762, 41.9524 ], [ 41.762, 41.9526 ], [ 41.7639, 41.9548 ], [ 41.7633, 41.9554 ], [ 41.7634, 41.9562 ], [ 41.7631, 41.9566 ], [ 41.7631, 41.9576 ], [ 41.763, 41.9579 ], [ 41.7626, 41.9591 ], [ 41.763, 41.9611 ], [ 41.763, 41.9612 ], [ 41.7631, 41.9625 ], [ 41.7625, 41.9624 ], [ 41.7619, 41.9651 ], [ 41.7619, 41.9656 ], [ 41.763, 41.966 ], [ 41.7629, 41.9664 ], [ 41.7629, 41.9668 ], [ 41.7626, 41.9676 ], [ 41.7617, 41.9689 ], [ 41.7613, 41.9689 ], [ 41.7611, 41.9698 ], [ 41.761, 41.9703 ], [ 41.761, 41.9705 ], [ 41.7607, 41.9716 ], [ 41.7607, 41.9717 ], [ 41.7609, 41.9718 ], [ 41.7611, 41.9718 ], [ 41.7612, 41.9719 ], [ 41.7614, 41.9718 ], [ 41.7615, 41.9723 ], [ 41.7615, 41.9724 ], [ 41.7609, 41.9732 ], [ 41.7618, 41.9741 ], [ 41.7614, 41.9746 ], [ 41.7613, 41.9748 ], [ 41.7603, 41.9751 ], [ 41.76, 41.9775 ], [ 41.7599, 41.9789 ], [ 41.7597, 41.9817 ], [ 41.7597, 41.9833 ], [ 41.7596, 41.9844 ], [ 41.7595, 41.9869 ], [ 41.7593, 41.9877 ], [ 41.7596, 41.9884 ], [ 41.7599, 41.9889 ], [ 41.76, 41.9894 ], [ 41.7595, 41.9901 ], [ 41.7596, 41.9903 ], [ 41.7595, 41.9914 ], [ 41.7601, 41.9926 ], [ 41.7598, 41.9932 ], [ 41.7605, 41.9929 ], [ 41.7607, 41.9932 ], [ 41.7603, 41.9955 ], [ 41.7607, 41.9955 ], [ 41.7607, 41.9956 ], [ 41.7605, 41.9971 ], [ 41.76, 41.9971 ], [ 41.76, 41.9974 ], [ 41.7599, 41.9979 ], [ 41.7598, 41.9979 ], [ 41.7596, 41.9981 ], [ 41.7589, 41.9973 ], [ 41.7585, 41.9978 ], [ 41.759, 41.9981 ], [ 41.759, 41.9983 ], [ 41.7596, 41.9988 ], [ 41.7595, 41.9992 ], [ 41.7586, 42.0004 ], [ 41.7586, 42.0005 ], [ 41.7576, 42.0015 ], [ 41.7582, 42.0044 ], [ 41.757, 42.0086 ], [ 41.7544, 42.0136 ], [ 41.7543, 42.0149 ], [ 41.7538, 42.0174 ], [ 41.7543, 42.0186 ], [ 41.7518, 42.0204 ], [ 41.7499, 42.0194 ], [ 41.7542, 42.0248 ], [ 41.7533, 42.0256 ], [ 41.7532, 42.0255 ], [ 41.7526, 42.026 ], [ 41.7506, 42.0283 ], [ 41.7502, 42.0282 ], [ 41.7501, 42.0282 ], [ 41.7469, 42.0287 ], [ 41.746, 42.0292 ], [ 41.7436, 42.0289 ], [ 41.7439, 42.029 ], [ 41.7431, 42.0305 ], [ 41.7418, 42.031 ], [ 41.7401, 42.0322 ], [ 41.7398, 42.0327 ], [ 41.74, 42.0329 ], [ 41.7392, 42.0336 ], [ 41.7387, 42.0355 ], [ 41.7376, 42.039 ], [ 41.7366, 42.0384 ], [ 41.7362, 42.0384 ], [ 41.735, 42.0397 ], [ 41.7345, 42.0413 ], [ 41.7334, 42.0426 ], [ 41.7328, 42.0434 ], [ 41.7333, 42.0457 ], [ 41.7321, 42.0461 ], [ 41.7306, 42.0465 ], [ 41.7307, 42.047 ], [ 41.7304, 42.0479 ], [ 41.7301, 42.0481 ], [ 41.7297, 42.0495 ], [ 41.729, 42.0505 ], [ 41.7287, 42.0504 ], [ 41.7283, 42.0503 ], [ 41.728, 42.052 ], [ 41.7296, 42.0527 ], [ 41.7278, 42.056 ], [ 41.7271, 42.0558 ], [ 41.7256, 42.0565 ], [ 41.7256, 42.057 ], [ 41.7255, 42.057 ], [ 41.7253, 42.0574 ], [ 41.7245, 42.0566 ], [ 41.7237, 42.0581 ], [ 41.7233, 42.0622 ], [ 41.7223, 42.0619 ], [ 41.7209, 42.0642 ], [ 41.7211, 42.0648 ], [ 41.7186, 42.0667 ], [ 41.7157, 42.0715 ], [ 41.7162, 42.0717 ], [ 41.7167, 42.0722 ], [ 41.7148, 42.0757 ], [ 41.7123, 42.0774 ], [ 41.7115, 42.0777 ], [ 41.7108, 42.0778 ], [ 41.7106, 42.0785 ], [ 41.7103, 42.0784 ], [ 41.7098, 42.079 ], [ 41.71, 42.0814 ], [ 41.7097, 42.0819 ], [ 41.7087, 42.0833 ], [ 41.7084, 42.0836 ], [ 41.708, 42.0846 ], [ 41.7075, 42.0849 ], [ 41.7073, 42.0886 ], [ 41.7067, 42.0897 ], [ 41.7067, 42.0898 ], [ 41.7065, 42.0901 ], [ 41.7064, 42.0905 ], [ 41.7063, 42.0905 ], [ 41.7062, 42.0906 ], [ 41.7061, 42.0912 ], [ 41.7059, 42.0912 ], [ 41.7058, 42.0914 ], [ 41.706, 42.0914 ], [ 41.7062, 42.0918 ], [ 41.7047, 42.0936 ], [ 41.7046, 42.0938 ], [ 41.7044, 42.0941 ], [ 41.7032, 42.0939 ], [ 41.7032, 42.0937 ], [ 41.7031, 42.0937 ], [ 41.7022, 42.0935 ], [ 41.702, 42.093 ], [ 41.7018, 42.0926 ], [ 41.7008, 42.0933 ], [ 41.6996, 42.0944 ], [ 41.6995, 42.0944 ], [ 41.6994, 42.0944 ], [ 41.6988, 42.0942 ], [ 41.6986, 42.0942 ], [ 41.6982, 42.0941 ], [ 41.698, 42.094 ], [ 41.6979, 42.094 ], [ 41.6978, 42.094 ], [ 41.6977, 42.0939 ], [ 41.6976, 42.0939 ], [ 41.6975, 42.0938 ], [ 41.6975, 42.0939 ], [ 41.6975, 42.094 ], [ 41.6974, 42.0941 ], [ 41.6972, 42.0943 ], [ 41.6969, 42.0945 ], [ 41.6965, 42.0951 ], [ 41.6962, 42.0953 ], [ 41.6957, 42.0961 ], [ 41.6955, 42.0961 ], [ 41.6951, 42.0958 ], [ 41.6948, 42.0968 ], [ 41.6943, 42.0977 ], [ 41.6941, 42.0976 ], [ 41.6937, 42.0974 ], [ 41.6938, 42.0981 ], [ 41.6934, 42.0985 ], [ 41.6931, 42.0988 ], [ 41.6932, 42.0989 ], [ 41.6926, 42.0996 ], [ 41.692, 42.1002 ], [ 41.69, 42.1025 ], [ 41.6898, 42.1027 ], [ 41.6897, 42.1029 ], [ 41.6893, 42.1033 ], [ 41.689, 42.104 ], [ 41.6889, 42.104 ], [ 41.6882, 42.1045 ], [ 41.6881, 42.1047 ], [ 41.6881, 42.1048 ], [ 41.6881, 42.1052 ], [ 41.6881, 42.1053 ], [ 41.6875, 42.1059 ], [ 41.6846, 42.1066 ], [ 41.6833, 42.1081 ], [ 41.6806, 42.1115 ], [ 41.6809, 42.1116 ], [ 41.6807, 42.1137 ], [ 41.6807, 42.1139 ], [ 41.6806, 42.114 ], [ 41.6807, 42.114 ], [ 41.6811, 42.1143 ], [ 41.68, 42.1165 ], [ 41.6811, 42.118 ], [ 41.6765, 42.1211 ], [ 41.6762, 42.1209 ], [ 41.6758, 42.1207 ], [ 41.6738, 42.1224 ], [ 41.6736, 42.1221 ], [ 41.6735, 42.1219 ], [ 41.6734, 42.1219 ], [ 41.6733, 42.1219 ], [ 41.6732, 42.1219 ], [ 41.673, 42.122 ], [ 41.6725, 42.1217 ], [ 41.6723, 42.1216 ], [ 41.672, 42.1217 ], [ 41.6717, 42.1219 ], [ 41.6716, 42.122 ], [ 41.6713, 42.1224 ], [ 41.6712, 42.1225 ], [ 41.6709, 42.1226 ], [ 41.6707, 42.1228 ], [ 41.6705, 42.123 ], [ 41.6706, 42.1233 ], [ 41.6698, 42.1241 ], [ 41.669, 42.1249 ], [ 41.6688, 42.1247 ], [ 41.6684, 42.1252 ], [ 41.6683, 42.1253 ], [ 41.668, 42.1256 ], [ 41.6677, 42.126 ], [ 41.6676, 42.1261 ], [ 41.6675, 42.1262 ], [ 41.6674, 42.1263 ], [ 41.6674, 42.1264 ], [ 41.6672, 42.1267 ], [ 41.667, 42.1269 ], [ 41.6669, 42.127 ], [ 41.6666, 42.1273 ], [ 41.6665, 42.1276 ], [ 41.6665, 42.1277 ], [ 41.666, 42.128 ], [ 41.6656, 42.1285 ], [ 41.6604, 42.1322 ], [ 41.6597, 42.1338 ], [ 41.6597, 42.1363 ], [ 41.659, 42.1362 ], [ 41.6588, 42.1374 ], [ 41.6587, 42.1381 ], [ 41.659, 42.1385 ], [ 41.6588, 42.1402 ], [ 41.658, 42.1421 ], [ 41.6579, 42.1426 ], [ 41.6574, 42.1439 ], [ 41.6569, 42.1451 ], [ 41.6571, 42.146 ], [ 41.6561, 42.1471 ], [ 41.6558, 42.1473 ], [ 41.6548, 42.1488 ], [ 41.6551, 42.1491 ], [ 41.6551, 42.1492 ], [ 41.655, 42.1493 ], [ 41.6557, 42.1506 ], [ 41.6561, 42.151 ], [ 41.6559, 42.1518 ], [ 41.6556, 42.1519 ], [ 41.6554, 42.152 ], [ 41.6554, 42.1525 ], [ 41.6525, 42.1522 ], [ 41.648, 42.1559 ], [ 41.6547, 42.1554 ], [ 41.6543, 42.1573 ], [ 41.6543, 42.1607 ], [ 41.6549, 42.1632 ], [ 41.6549, 42.1633 ], [ 41.6545, 42.164 ], [ 41.6531, 42.1638 ], [ 41.6518, 42.1632 ], [ 41.6516, 42.1633 ], [ 41.6514, 42.1636 ], [ 41.6513, 42.1637 ], [ 41.651, 42.1642 ], [ 41.6516, 42.165 ], [ 41.6516, 42.1652 ], [ 41.6515, 42.1653 ], [ 41.6514, 42.1653 ], [ 41.6511, 42.1654 ], [ 41.6508, 42.1663 ], [ 41.6506, 42.1666 ], [ 41.6506, 42.1667 ], [ 41.6504, 42.1669 ], [ 41.6504, 42.167 ], [ 41.6503, 42.1671 ], [ 41.6502, 42.1673 ], [ 41.6499, 42.1679 ], [ 41.6497, 42.1683 ], [ 41.6495, 42.1687 ], [ 41.6492, 42.1692 ], [ 41.6491, 42.1694 ], [ 41.6466, 42.1717 ], [ 41.6442, 42.1782 ], [ 41.6484, 42.1803 ], [ 41.65, 42.1793 ], [ 41.656, 42.1777 ], [ 41.656, 42.1799 ], [ 41.6555, 42.1824 ], [ 41.6556, 42.1826 ], [ 41.6559, 42.1831 ], [ 41.6562, 42.184 ], [ 41.6559, 42.1845 ], [ 41.6557, 42.1847 ], [ 41.6555, 42.1852 ], [ 41.6549, 42.1862 ], [ 41.6542, 42.1873 ], [ 41.654, 42.1877 ], [ 41.6538, 42.188 ], [ 41.6533, 42.1887 ], [ 41.653, 42.1893 ], [ 41.6532, 42.1894 ], [ 41.6533, 42.1895 ], [ 41.6534, 42.1895 ], [ 41.6534, 42.1899 ], [ 41.6534, 42.1905 ], [ 41.6534, 42.1906 ], [ 41.6534, 42.191 ], [ 41.6534, 42.1912 ], [ 41.6534, 42.1918 ], [ 41.6535, 42.1922 ], [ 41.6536, 42.1924 ], [ 41.6538, 42.1928 ], [ 41.6539, 42.1931 ], [ 41.6539, 42.1936 ], [ 41.6537, 42.1941 ], [ 41.6529, 42.1945 ], [ 41.6524, 42.1941 ], [ 41.652, 42.1947 ], [ 41.6515, 42.1948 ], [ 41.6533, 42.1945 ], [ 41.6537, 42.1943 ], [ 41.6567, 42.1977 ], [ 41.6407, 42.2624 ], [ 41.6421, 42.2661 ], [ 41.6423, 42.2662 ], [ 41.642, 42.2674 ], [ 41.642, 42.2676 ], [ 41.6417, 42.2677 ], [ 41.6416, 42.2678 ], [ 41.6417, 42.2684 ], [ 41.6412, 42.2694 ], [ 41.6412, 42.2696 ], [ 41.6408, 42.2711 ], [ 41.6413, 42.2714 ], [ 41.6416, 42.2715 ], [ 41.6418, 42.2717 ], [ 41.6424, 42.2728 ], [ 41.6431, 42.2729 ], [ 41.6434, 42.2729 ], [ 41.6437, 42.2731 ], [ 41.6437, 42.2733 ], [ 41.6441, 42.2738 ], [ 41.6439, 42.2741 ], [ 41.6571, 42.3181 ], [ 41.6594, 42.3188 ], [ 41.6622, 42.3263 ], [ 41.6503, 42.339 ], [ 41.6466, 42.3384 ], [ 41.6465, 42.3386 ], [ 41.6448, 42.3415 ], [ 41.6375, 42.351 ], [ 41.6338, 42.3509 ], [ 41.6327, 42.3512 ], [ 41.6321, 42.3661 ], [ 41.6259, 42.3641 ], [ 41.6302, 42.3839 ], [ 41.6284, 42.3875 ], [ 41.619, 42.3896 ], [ 41.615, 42.3892 ], [ 41.615, 42.3893 ], [ 41.615, 42.3895 ], [ 41.6152, 42.395 ], [ 41.6108, 42.4002 ], [ 41.6092, 42.4003 ], [ 41.6086, 42.4002 ], [ 41.5962, 42.3986 ], [ 41.5946, 42.3947 ], [ 41.5942, 42.3932 ], [ 41.5942, 42.3931 ], [ 41.5941, 42.3931 ], [ 41.5903, 42.3916 ], [ 41.5805, 42.3972 ], [ 41.5795, 42.3971 ], [ 41.5779, 42.397 ], [ 41.5775, 42.3993 ], [ 41.5793, 42.399 ], [ 41.5836, 42.4032 ], [ 41.5873, 42.4001 ], [ 41.592, 42.4028 ], [ 41.5966, 42.4022 ], [ 41.6016, 42.4025 ], [ 41.6081, 42.4032 ], [ 41.609, 42.4028 ], [ 41.6095, 42.4057 ], [ 41.608, 42.4095 ], [ 41.613, 42.4041 ], [ 41.6148, 42.4023 ], [ 41.6171, 42.401 ], [ 41.6244, 42.4046 ], [ 41.6285, 42.4085 ], [ 41.6274, 42.4102 ], [ 41.6271, 42.4113 ], [ 41.6307, 42.4131 ], [ 41.638, 42.4196 ], [ 41.6357, 42.4221 ], [ 41.6383, 42.4344 ], [ 41.6444, 42.4293 ], [ 41.646, 42.4323 ], [ 41.6525, 42.4438 ], [ 41.653, 42.4455 ], [ 41.6568, 42.4579 ], [ 41.657, 42.4586 ], [ 41.6536, 42.459 ], [ 41.6541, 42.4599 ], [ 41.6542, 42.4599 ], [ 41.6543, 42.46 ], [ 41.6552, 42.4622 ], [ 41.6565, 42.4631 ], [ 41.6551, 42.4663 ], [ 41.6568, 42.4664 ], [ 41.6568, 42.4696 ], [ 41.6554, 42.4697 ], [ 41.6552, 42.4717 ], [ 41.6548, 42.4748 ], [ 41.6537, 42.4771 ], [ 41.6542, 42.477 ], [ 41.6554, 42.4803 ], [ 41.6584, 42.4775 ], [ 41.6597, 42.4771 ], [ 41.6605, 42.4782 ], [ 41.6625, 42.4791 ], [ 41.6633, 42.4802 ], [ 41.6643, 42.4808 ], [ 41.6641, 42.4812 ], [ 41.6653, 42.4817 ], [ 41.6655, 42.4824 ], [ 41.6658, 42.4827 ], [ 41.6679, 42.4841 ], [ 41.6682, 42.4842 ], [ 41.6703, 42.4851 ], [ 41.6704, 42.485 ], [ 41.6707, 42.4852 ], [ 41.6767, 42.4875 ], [ 41.6767, 42.4879 ], [ 41.6776, 42.49 ], [ 41.681, 42.4902 ], [ 41.6812, 42.4899 ], [ 41.6814, 42.4893 ], [ 41.6845, 42.4907 ], [ 41.6843, 42.4912 ], [ 41.6864, 42.4933 ], [ 41.6871, 42.4917 ], [ 41.6881, 42.4903 ], [ 41.6889, 42.4898 ], [ 41.6936, 42.4933 ], [ 41.6975, 42.4899 ], [ 41.6989, 42.4893 ], [ 41.7022, 42.4908 ], [ 41.7032, 42.4917 ], [ 41.7048, 42.4934 ], [ 41.7054, 42.4996 ], [ 41.7045, 42.5007 ], [ 41.7021, 42.5044 ], [ 41.7096, 42.4996 ], [ 41.7091, 42.4982 ], [ 41.7108, 42.4972 ], [ 41.7132, 42.4982 ], [ 41.7174, 42.5001 ], [ 41.7181, 42.5003 ], [ 41.7183, 42.5007 ], [ 41.7208, 42.5015 ], [ 41.7206, 42.5019 ], [ 41.7217, 42.5029 ], [ 41.7297, 42.501 ], [ 41.7352, 42.4995 ], [ 41.7355, 42.5019 ], [ 41.7398, 42.5023 ], [ 41.74, 42.5017 ], [ 41.7464, 42.5027 ], [ 41.7466, 42.5026 ], [ 41.7485, 42.5018 ], [ 41.7558, 42.5037 ], [ 41.7577, 42.5041 ], [ 41.7604, 42.5061 ], [ 41.7599, 42.5166 ], [ 41.7606, 42.5159 ], [ 41.7617, 42.5149 ], [ 41.7626, 42.5152 ], [ 41.7634, 42.515 ], [ 41.7654, 42.5188 ], [ 41.7648, 42.5199 ], [ 41.7688, 42.5226 ], [ 41.7717, 42.5287 ], [ 41.771, 42.5297 ], [ 41.7743, 42.531 ], [ 41.7755, 42.5295 ], [ 41.7777, 42.5278 ], [ 41.7884, 42.5388 ], [ 41.7905, 42.5367 ], [ 41.7924, 42.5357 ], [ 41.7931, 42.536 ], [ 41.7964, 42.5372 ], [ 41.7967, 42.5374 ], [ 41.8077, 42.5414 ], [ 41.8116, 42.5411 ], [ 41.8117, 42.5409 ], [ 41.8119, 42.5406 ], [ 41.816, 42.5426 ], [ 41.8214, 42.5469 ], [ 41.8217, 42.5471 ], [ 41.8271, 42.5435 ], [ 41.8276, 42.5431 ], [ 41.8341, 42.5462 ], [ 41.8339, 42.5468 ], [ 41.8359, 42.5488 ], [ 41.8399, 42.5539 ], [ 41.8436, 42.5533 ], [ 41.8437, 42.5533 ], [ 41.8445, 42.5526 ], [ 41.8453, 42.5527 ], [ 41.8477, 42.5533 ], [ 41.8485, 42.5539 ], [ 41.8483, 42.5541 ], [ 41.8482, 42.5542 ], [ 41.8493, 42.5534 ], [ 41.8497, 42.5536 ], [ 41.8501, 42.5537 ], [ 41.8505, 42.5538 ], [ 41.8506, 42.5539 ], [ 41.8508, 42.554 ], [ 41.851, 42.5562 ], [ 41.8513, 42.5561 ], [ 41.8516, 42.556 ], [ 41.8529, 42.5585 ], [ 41.8534, 42.5582 ], [ 41.8536, 42.5581 ], [ 41.8537, 42.558 ], [ 41.8539, 42.5579 ], [ 41.8544, 42.5575 ], [ 41.8549, 42.5594 ], [ 41.8547, 42.5595 ], [ 41.8546, 42.5596 ], [ 41.8561, 42.5613 ], [ 41.8554, 42.5622 ], [ 41.8544, 42.5623 ], [ 41.8549, 42.5639 ], [ 41.8543, 42.5639 ], [ 41.8542, 42.5641 ], [ 41.8539, 42.5643 ], [ 41.8523, 42.565 ], [ 41.8522, 42.5651 ], [ 41.852, 42.5652 ], [ 41.8518, 42.5653 ], [ 41.8513, 42.5656 ], [ 41.851, 42.5657 ], [ 41.8495, 42.5639 ], [ 41.8503, 42.5649 ], [ 41.8505, 42.5651 ], [ 41.8501, 42.5657 ], [ 41.848, 42.568 ], [ 41.8451, 42.5685 ], [ 41.8452, 42.5686 ], [ 41.8453, 42.5688 ], [ 41.8459, 42.5695 ], [ 41.8494, 42.5696 ], [ 41.8531, 42.569 ], [ 41.8534, 42.57 ], [ 41.8535, 42.5707 ], [ 41.8536, 42.571 ], [ 41.8536, 42.5712 ], [ 41.8538, 42.572 ], [ 41.8538, 42.5721 ], [ 41.8541, 42.5734 ], [ 41.8541, 42.5735 ], [ 41.8555, 42.5762 ], [ 41.8568, 42.5718 ], [ 41.8571, 42.5715 ], [ 41.8574, 42.5712 ], [ 41.8576, 42.5711 ], [ 41.8591, 42.5724 ], [ 41.8596, 42.5718 ], [ 41.8611, 42.5714 ], [ 41.8619, 42.5715 ], [ 41.863, 42.5728 ], [ 41.864, 42.5746 ], [ 41.864, 42.5747 ], [ 41.8637, 42.5758 ], [ 41.8638, 42.576 ], [ 41.8635, 42.5762 ], [ 41.8633, 42.5766 ], [ 41.8641, 42.5767 ], [ 41.8655, 42.5767 ], [ 41.8662, 42.576 ], [ 41.8675, 42.5768 ], [ 41.8688, 42.5769 ], [ 41.8689, 42.5769 ], [ 41.8692, 42.5769 ], [ 41.868, 42.5758 ], [ 41.8694, 42.5714 ], [ 41.8693, 42.5713 ], [ 41.8687, 42.5677 ], [ 41.8768, 42.5636 ], [ 41.8775, 42.5631 ], [ 41.8791, 42.5639 ], [ 41.8822, 42.5658 ], [ 41.8868, 42.567 ], [ 41.8883, 42.5694 ], [ 41.8874, 42.571 ], [ 41.8864, 42.5727 ], [ 41.8863, 42.573 ], [ 41.8862, 42.5757 ], [ 41.8877, 42.5706 ], [ 41.8898, 42.5693 ], [ 41.8903, 42.5688 ], [ 41.8932, 42.5667 ], [ 41.8949, 42.5663 ], [ 41.9018, 42.5675 ], [ 41.9059, 42.571 ], [ 41.91, 42.5746 ], [ 41.9112, 42.578 ], [ 41.912, 42.5802 ], [ 41.9167, 42.5794 ], [ 41.9238, 42.566 ], [ 41.9241, 42.5658 ], [ 41.9262, 42.5655 ], [ 41.9276, 42.5645 ], [ 41.929, 42.5653 ], [ 41.9304, 42.565 ], [ 41.9347, 42.5637 ], [ 41.937, 42.5632 ], [ 41.9379, 42.5696 ], [ 41.9437, 42.5679 ], [ 41.9505, 42.5664 ], [ 41.9504, 42.5649 ], [ 41.9508, 42.5648 ], [ 41.9547, 42.5641 ], [ 41.956, 42.5631 ], [ 41.9572, 42.5635 ], [ 41.9599, 42.5613 ], [ 41.9597, 42.5548 ], [ 41.9596, 42.5415 ], [ 41.9714, 42.53 ], [ 41.9732, 42.5304 ], [ 41.9729, 42.5287 ], [ 41.9728, 42.5285 ], [ 41.9723, 42.5259 ], [ 41.9698, 42.5242 ], [ 41.9713, 42.5158 ], [ 41.9757, 42.5124 ], [ 41.9821, 42.5138 ], [ 41.9851, 42.512 ], [ 41.9859, 42.5126 ], [ 41.9877, 42.5122 ], [ 41.9915, 42.5133 ], [ 41.9909, 42.5155 ], [ 41.9917, 42.516 ], [ 41.9932, 42.5156 ], [ 41.9933, 42.5142 ], [ 41.9979, 42.5156 ], [ 41.9996, 42.5173 ], [ 41.9999, 42.5178 ], [ 42.0065, 42.522 ], [ 42.0069, 42.5216 ], [ 42.0097, 42.5219 ], [ 42.0113, 42.5261 ], [ 42.0146, 42.525 ], [ 42.0188, 42.5273 ], [ 42.0271, 42.5336 ], [ 42.028, 42.5428 ], [ 42.0375, 42.5429 ], [ 42.0419, 42.5527 ], [ 42.0458, 42.5513 ], [ 42.0498, 42.5509 ], [ 42.0946, 42.5541 ], [ 42.0976, 42.5564 ], [ 42.1013, 42.5565 ], [ 42.1016, 42.5586 ], [ 42.1052, 42.5562 ], [ 42.117, 42.5614 ], [ 42.1195, 42.5615 ], [ 42.1204, 42.5582 ], [ 42.121, 42.558 ], [ 42.1219, 42.5577 ], [ 42.1295, 42.5622 ], [ 42.1297, 42.5624 ], [ 42.1318, 42.5638 ], [ 42.132, 42.5642 ], [ 42.1343, 42.5675 ], [ 42.1342, 42.5693 ], [ 42.1328, 42.5736 ], [ 42.1327, 42.5737 ], [ 42.1322, 42.5737 ], [ 42.1313, 42.5752 ], [ 42.1303, 42.5767 ], [ 42.1294, 42.5762 ], [ 42.1279, 42.5775 ], [ 42.1269, 42.5787 ], [ 42.1275, 42.5794 ], [ 42.128, 42.5796 ], [ 42.1287, 42.5804 ], [ 42.1287, 42.5828 ], [ 42.1359, 42.5817 ], [ 42.1385, 42.5832 ], [ 42.1402, 42.5827 ], [ 42.1421, 42.5869 ], [ 42.1515, 42.5854 ], [ 42.156, 42.5867 ], [ 42.1572, 42.5884 ], [ 42.159, 42.5903 ], [ 42.1597, 42.5957 ], [ 42.1642, 42.5979 ], [ 42.1648, 42.5988 ], [ 42.165, 42.5992 ], [ 42.1684, 42.6027 ], [ 42.1701, 42.6024 ], [ 42.1718, 42.6119 ], [ 42.1727, 42.6117 ], [ 42.1743, 42.6125 ], [ 42.1778, 42.6079 ], [ 42.1724, 42.6037 ], [ 42.1737, 42.6003 ], [ 42.1735, 42.5959 ], [ 42.172, 42.59 ], [ 42.1737, 42.5852 ], [ 42.1681, 42.5804 ], [ 42.1659, 42.5758 ], [ 42.1659, 42.5715 ], [ 42.1696, 42.5679 ], [ 42.1837, 42.568 ], [ 42.1851, 42.5704 ], [ 42.186, 42.5695 ], [ 42.1892, 42.5697 ], [ 42.1903, 42.5699 ], [ 42.1949, 42.5703 ], [ 42.1953, 42.573 ], [ 42.1943, 42.575 ], [ 42.1942, 42.5752 ], [ 42.1977, 42.5775 ], [ 42.1999, 42.5741 ], [ 42.2055, 42.5713 ], [ 42.2068, 42.5687 ], [ 42.2059, 42.5649 ], [ 42.2146, 42.5667 ], [ 42.2047, 42.5501 ], [ 42.2007, 42.5505 ], [ 42.2003, 42.5511 ], [ 42.199, 42.5495 ], [ 42.194, 42.544 ], [ 42.1866, 42.5444 ], [ 42.1866, 42.543 ], [ 42.1819, 42.5406 ], [ 42.1892, 42.5289 ], [ 42.1853, 42.5277 ], [ 42.1841, 42.5271 ], [ 42.1842, 42.5247 ], [ 42.19, 42.5191 ], [ 42.1901, 42.519 ], [ 42.1943, 42.5177 ], [ 42.195, 42.5189 ], [ 42.1963, 42.5188 ], [ 42.1961, 42.5182 ], [ 42.1967, 42.5161 ], [ 42.192, 42.5142 ], [ 42.1908, 42.5142 ], [ 42.1907, 42.5137 ], [ 42.1904, 42.5136 ], [ 42.1898, 42.5133 ], [ 42.1908, 42.5123 ], [ 42.1978, 42.4967 ], [ 42.2079, 42.4909 ], [ 42.2087, 42.4899 ], [ 42.2134, 42.4785 ], [ 42.2226, 42.4767 ], [ 42.2345, 42.4773 ], [ 42.2347, 42.4786 ], [ 42.2371, 42.4776 ], [ 42.2486, 42.4846 ], [ 42.2538, 42.4895 ], [ 42.2605, 42.4882 ], [ 42.2615, 42.4851 ], [ 42.262, 42.484 ], [ 42.2714, 42.4854 ], [ 42.276, 42.4916 ], [ 42.2772, 42.4912 ], [ 42.2788, 42.4954 ], [ 42.2854, 42.4926 ], [ 42.2875, 42.4922 ], [ 42.2888, 42.4905 ], [ 42.2924, 42.4928 ], [ 42.2926, 42.4929 ], [ 42.2953, 42.4948 ], [ 42.2957, 42.495 ], [ 42.2961, 42.4951 ], [ 42.2973, 42.4952 ], [ 42.3008, 42.5009 ], [ 42.3044, 42.4996 ], [ 42.3052, 42.4987 ], [ 42.3093, 42.4996 ], [ 42.3119, 42.5053 ], [ 42.3121, 42.5046 ], [ 42.3138, 42.5047 ], [ 42.3164, 42.5055 ], [ 42.318, 42.5088 ], [ 42.3196, 42.5083 ], [ 42.324, 42.5157 ], [ 42.3256, 42.511 ], [ 42.3287, 42.5059 ], [ 42.3315, 42.5031 ], [ 42.3328, 42.5041 ], [ 42.3348, 42.4977 ], [ 42.3336, 42.4938 ], [ 42.3335, 42.4906 ], [ 42.3353, 42.4892 ], [ 42.3346, 42.4865 ], [ 42.3344, 42.4824 ], [ 42.333, 42.4809 ], [ 42.3317, 42.4799 ], [ 42.3337, 42.4758 ], [ 42.3361, 42.4763 ], [ 42.3333, 42.4596 ], [ 42.3367, 42.4548 ], [ 42.3383, 42.4548 ], [ 42.3406, 42.4572 ], [ 42.3777, 42.4441 ], [ 42.3801, 42.4436 ], [ 42.3803, 42.4423 ], [ 42.3846, 42.4417 ], [ 42.3859, 42.4383 ], [ 42.3862, 42.4384 ], [ 42.3849, 42.4354 ], [ 42.385, 42.4343 ], [ 42.386, 42.4315 ], [ 42.3856, 42.4288 ], [ 42.3865, 42.4285 ], [ 42.3882, 42.4271 ], [ 42.3899, 42.4281 ], [ 42.3913, 42.4264 ], [ 42.3983, 42.4273 ], [ 42.3955, 42.4214 ], [ 42.3963, 42.4211 ], [ 42.3954, 42.4186 ], [ 42.3955, 42.4163 ], [ 42.4001, 42.4153 ], [ 42.4108, 42.4133 ], [ 42.411, 42.4134 ], [ 42.4111, 42.4135 ], [ 42.4162, 42.4195 ], [ 42.417, 42.4199 ], [ 42.4171, 42.419 ], [ 42.4172, 42.419 ], [ 42.4178, 42.4189 ], [ 42.4179, 42.4189 ], [ 42.422, 42.4205 ], [ 42.4243, 42.4185 ], [ 42.4249, 42.4192 ], [ 42.4251, 42.42 ], [ 42.4281, 42.4197 ], [ 42.4365, 42.4203 ], [ 42.4383, 42.417 ], [ 42.4394, 42.4179 ], [ 42.4416, 42.4153 ], [ 42.4532, 42.4201 ], [ 42.4533, 42.42 ], [ 42.4664, 42.4212 ], [ 42.468, 42.423 ], [ 42.4678, 42.4262 ], [ 42.4677, 42.4265 ], [ 42.4703, 42.4275 ], [ 42.4782, 42.4231 ], [ 42.4792, 42.4212 ], [ 42.4806, 42.4213 ], [ 42.4818, 42.4203 ], [ 42.4824, 42.4206 ], [ 42.4871, 42.4202 ], [ 42.4901, 42.4214 ], [ 42.4925, 42.4205 ], [ 42.4948, 42.4209 ], [ 42.4962, 42.4222 ], [ 42.4963, 42.4229 ], [ 42.4973, 42.425 ], [ 42.5142, 42.4233 ], [ 42.5158, 42.4252 ], [ 42.5245, 42.4219 ], [ 42.5252, 42.4229 ], [ 42.5262, 42.4226 ], [ 42.5807, 42.3724 ], [ 42.5828, 42.3695 ], [ 42.5838, 42.3708 ], [ 42.5853, 42.3718 ], [ 42.5864, 42.3728 ], [ 42.5908, 42.3714 ], [ 42.5991, 42.3706 ], [ 42.5994, 42.3699 ], [ 42.601, 42.3701 ], [ 42.6026, 42.369 ], [ 42.603, 42.367 ], [ 42.6024, 42.3662 ], [ 42.6048, 42.3645 ], [ 42.6063, 42.3618 ], [ 42.6064, 42.3617 ], [ 42.6084, 42.3608 ], [ 42.6155, 42.3577 ], [ 42.6159, 42.3573 ], [ 42.6198, 42.3547 ], [ 42.6195, 42.3535 ], [ 42.6243, 42.3466 ], [ 42.6261, 42.3476 ], [ 42.6263, 42.3484 ], [ 42.6381, 42.342 ], [ 42.6398, 42.3481 ], [ 42.6412, 42.348 ], [ 42.6415, 42.3485 ], [ 42.6426, 42.3453 ], [ 42.6427, 42.345 ], [ 42.6473, 42.3434 ], [ 42.6473, 42.3378 ], [ 42.6506, 42.3362 ], [ 42.6517, 42.3365 ], [ 42.6829, 42.3258 ], [ 42.6836, 42.3261 ], [ 42.6868, 42.3275 ], [ 42.686, 42.3242 ], [ 42.6862, 42.3237 ], [ 42.686, 42.3227 ], [ 42.6883, 42.3214 ], [ 42.6891, 42.3216 ], [ 42.692, 42.3204 ], [ 42.6927, 42.32 ], [ 42.6937, 42.3207 ], [ 42.6955, 42.3219 ], [ 42.6962, 42.3228 ], [ 42.6971, 42.3204 ], [ 42.6975, 42.318 ], [ 42.7024, 42.3205 ], [ 42.7055, 42.3247 ], [ 42.7082, 42.3229 ], [ 42.7094, 42.324 ], [ 42.7101, 42.3248 ], [ 42.7134, 42.3224 ], [ 42.7129, 42.3196 ], [ 42.7132, 42.3194 ], [ 42.7164, 42.3181 ], [ 42.7165, 42.3172 ], [ 42.7167, 42.3147 ], [ 42.7159, 42.3125 ], [ 42.7201, 42.3087 ], [ 42.722, 42.3105 ], [ 42.7261, 42.3079 ], [ 42.7273, 42.3081 ], [ 42.7294, 42.3091 ], [ 42.73, 42.308 ], [ 42.74, 42.3084 ], [ 42.7397, 42.3061 ], [ 42.7403, 42.3059 ], [ 42.7537, 42.3071 ], [ 42.7548, 42.3049 ], [ 42.7547, 42.3048 ], [ 42.7553, 42.3041 ], [ 42.7554, 42.3039 ], [ 42.7562, 42.3021 ], [ 42.7562, 42.3008 ], [ 42.758, 42.2999 ], [ 42.7618, 42.3039 ], [ 42.7673, 42.3035 ], [ 42.7677, 42.3028 ], [ 42.7707, 42.3023 ], [ 42.7709, 42.3024 ], [ 42.7711, 42.3033 ], [ 42.7722, 42.3036 ], [ 42.7723, 42.3037 ], [ 42.7877, 42.2794 ], [ 42.7905, 42.2749 ], [ 42.7911, 42.273 ], [ 42.7918, 42.273 ], [ 42.794, 42.2725 ], [ 42.7966, 42.2713 ], [ 42.8039, 42.273 ], [ 42.8046, 42.2744 ], [ 42.8164, 42.2714 ], [ 42.8176, 42.2718 ], [ 42.8172, 42.2627 ], [ 42.8148, 42.2616 ], [ 42.8193, 42.253 ], [ 42.8195, 42.2523 ], [ 42.8222, 42.253 ], [ 42.8268, 42.2553 ], [ 42.832, 42.2526 ], [ 42.8328, 42.2528 ], [ 42.8377, 42.2472 ], [ 42.839, 42.2486 ], [ 42.8401, 42.2476 ], [ 42.8403, 42.2474 ], [ 42.8418, 42.248 ], [ 42.8456, 42.2487 ], [ 42.8471, 42.2488 ], [ 42.8501, 42.2527 ], [ 42.8514, 42.2531 ], [ 42.852, 42.2518 ], [ 42.852, 42.2515 ], [ 42.8562, 42.2502 ], [ 42.8577, 42.2501 ], [ 42.8598, 42.2491 ], [ 42.8613, 42.2515 ], [ 42.8643, 42.2528 ], [ 42.868, 42.2512 ], [ 42.8689, 42.2522 ], [ 42.8696, 42.2534 ], [ 42.8767, 42.2551 ], [ 42.878, 42.2559 ], [ 42.8781, 42.2568 ], [ 42.8792, 42.2566 ], [ 42.8793, 42.2561 ], [ 42.8802, 42.2552 ], [ 42.8825, 42.257 ], [ 42.8878, 42.2697 ], [ 42.8853, 42.248 ], [ 42.889, 42.2436 ], [ 42.8904, 42.2397 ], [ 42.8926, 42.24 ], [ 42.8943, 42.2414 ], [ 42.8962, 42.2436 ], [ 42.8971, 42.2428 ], [ 42.8973, 42.2428 ], [ 42.898, 42.242 ], [ 42.9024, 42.2446 ], [ 42.9081, 42.2476 ], [ 42.9084, 42.2475 ], [ 42.9107, 42.248 ], [ 42.9121, 42.2484 ], [ 42.913, 42.2473 ], [ 42.9136, 42.2478 ], [ 42.915, 42.2471 ], [ 42.9151, 42.2471 ], [ 42.9192, 42.2493 ], [ 42.9217, 42.2482 ], [ 42.9244, 42.2462 ], [ 42.9255, 42.2438 ], [ 42.9259, 42.2436 ], [ 42.9263, 42.2439 ], [ 42.9291, 42.2428 ], [ 42.9292, 42.243 ], [ 42.9297, 42.2427 ], [ 42.9313, 42.2418 ], [ 42.9316, 42.2417 ], [ 42.932, 42.2418 ], [ 42.933, 42.2424 ], [ 42.9329, 42.2438 ], [ 42.9336, 42.2437 ], [ 42.9346, 42.2438 ], [ 42.9341, 42.2458 ], [ 42.9389, 42.2484 ], [ 42.9399, 42.2432 ], [ 42.9422, 42.2427 ], [ 42.9447, 42.2441 ], [ 42.9455, 42.2434 ], [ 42.9456, 42.2434 ], [ 42.9462, 42.2436 ], [ 42.9492, 42.2448 ], [ 42.9611, 42.2345 ], [ 42.9636, 42.2355 ], [ 42.9644, 42.2376 ], [ 42.9657, 42.2375 ], [ 42.971, 42.2423 ], [ 42.9794, 42.2425 ], [ 42.9879, 42.2426 ], [ 42.9878, 42.246 ], [ 42.9884, 42.2481 ], [ 43.0037, 42.2395 ], [ 43.001, 42.2328 ], [ 43.0019, 42.2323 ], [ 43.0054, 42.2306 ], [ 43.0063, 42.2302 ], [ 43.011, 42.2251 ], [ 43.021, 42.2202 ], [ 43.0226, 42.222 ], [ 43.0228, 42.2223 ], [ 43.0236, 42.2231 ], [ 43.0237, 42.2232 ], [ 43.0248, 42.2231 ], [ 43.0206, 42.218 ], [ 43.0185, 42.2173 ], [ 43.017, 42.2176 ], [ 43.0164, 42.2173 ], [ 43.0153, 42.2165 ], [ 43.0134, 42.2143 ], [ 43.013, 42.2133 ], [ 43.0126, 42.2125 ], [ 43.0119, 42.2112 ], [ 43.0119, 42.2111 ], [ 43.0149, 42.1912 ], [ 43.0182, 42.1918 ], [ 43.014, 42.1819 ], [ 43.0121, 42.1748 ], [ 43.0128, 42.1704 ], [ 43.0142, 42.1677 ], [ 43.0142, 42.166 ], [ 43.0082, 42.1415 ], [ 43.009, 42.1391 ], [ 43.0097, 42.1372 ], [ 43.0161, 42.1411 ], [ 43.0224, 42.1396 ], [ 43.0225, 42.1394 ], [ 43.023, 42.1399 ], [ 43.0246, 42.1407 ], [ 43.029, 42.1414 ], [ 43.0286, 42.1367 ], [ 43.0304, 42.1367 ], [ 43.0304, 42.1357 ], [ 43.0306, 42.1353 ], [ 43.0309, 42.1354 ], [ 43.0343, 42.1367 ], [ 43.0348, 42.1372 ], [ 43.0361, 42.1385 ], [ 43.0368, 42.1391 ], [ 43.0366, 42.1398 ], [ 43.0418, 42.1429 ], [ 43.0388, 42.1392 ], [ 43.0397, 42.1372 ], [ 43.042, 42.1327 ], [ 43.0404, 42.1187 ], [ 43.0389, 42.1179 ], [ 43.0418, 42.1125 ], [ 43.0422, 42.1125 ], [ 43.0437, 42.1127 ], [ 43.0438, 42.112 ], [ 43.0437, 42.1113 ], [ 43.0448, 42.111 ], [ 43.0454, 42.1096 ], [ 43.0459, 42.1094 ], [ 43.0469, 42.1092 ], [ 43.0469, 42.1091 ], [ 43.0465, 42.1076 ], [ 43.0472, 42.1076 ], [ 43.0478, 42.1076 ], [ 43.0496, 42.107 ], [ 43.0498, 42.1074 ], [ 43.052, 42.1063 ], [ 43.0522, 42.1061 ], [ 43.0524, 42.1059 ], [ 43.0522, 42.1058 ], [ 43.0523, 42.1054 ], [ 43.0542, 42.1052 ], [ 43.0546, 42.1034 ], [ 43.0556, 42.1026 ], [ 43.0569, 42.1015 ], [ 43.0575, 42.101 ], [ 43.0588, 42.1001 ], [ 43.059, 42.1006 ], [ 43.0622, 42.1007 ], [ 43.0627, 42.1011 ], [ 43.0642, 42.1007 ], [ 43.0658, 42.1019 ], [ 43.0663, 42.101 ], [ 43.0673, 42.1008 ], [ 43.0688, 42.101 ], [ 43.0697, 42.1016 ], [ 43.0698, 42.1017 ], [ 43.0699, 42.1017 ], [ 43.0699, 42.1016 ], [ 43.0703, 42.1014 ], [ 43.0708, 42.1023 ], [ 43.0726, 42.1004 ], [ 43.0725, 42.1003 ], [ 43.0708, 42.099 ], [ 43.0708, 42.0982 ], [ 43.0701, 42.0973 ], [ 43.0745, 42.0948 ], [ 43.0942, 42.093 ], [ 43.0944, 42.0935 ], [ 43.0946, 42.0935 ], [ 43.0946, 42.0932 ], [ 43.0946, 42.093 ], [ 43.0951, 42.0926 ], [ 43.0956, 42.0925 ], [ 43.0961, 42.0923 ], [ 43.0992, 42.092 ], [ 43.097, 42.092 ], [ 43.0968, 42.0918 ], [ 43.0959, 42.0912 ], [ 43.0956, 42.0913 ], [ 43.0949, 42.0921 ], [ 43.0944, 42.0921 ], [ 43.0942, 42.0923 ], [ 43.0678, 42.0939 ], [ 43.0672, 42.0934 ], [ 43.0679, 42.09 ], [ 43.0669, 42.094 ], [ 43.0657, 42.096 ], [ 43.0652, 42.0974 ], [ 43.0645, 42.0972 ], [ 43.0633, 42.0983 ], [ 43.063, 42.0987 ], [ 43.0629, 42.0988 ], [ 43.061, 42.0965 ], [ 43.0602, 42.0958 ], [ 43.0596, 42.0964 ], [ 43.0592, 42.0967 ], [ 43.0588, 42.0969 ], [ 43.0532, 42.1006 ], [ 43.0527, 42.1012 ], [ 43.0524, 42.1015 ], [ 43.052, 42.1057 ], [ 43.0439, 42.1039 ], [ 43.042, 42.1062 ], [ 43.0406, 42.1055 ], [ 43.0401, 42.1063 ], [ 43.0399, 42.1064 ], [ 43.0396, 42.106 ], [ 43.0384, 42.1054 ], [ 43.0381, 42.106 ], [ 43.0378, 42.1064 ], [ 43.0359, 42.1064 ], [ 43.0357, 42.1053 ], [ 43.0357, 42.1045 ], [ 43.0351, 42.1045 ], [ 43.0351, 42.1044 ], [ 43.0349, 42.1045 ], [ 43.0344, 42.104 ], [ 43.0343, 42.1043 ], [ 43.0336, 42.1048 ], [ 43.0316, 42.1038 ], [ 43.0313, 42.1033 ], [ 43.031, 42.1037 ], [ 43.0311, 42.1038 ], [ 43.0307, 42.1043 ], [ 43.0306, 42.1044 ], [ 43.0293, 42.1036 ], [ 43.0284, 42.1036 ], [ 43.0274, 42.1036 ], [ 43.0269, 42.1036 ], [ 43.0264, 42.1036 ], [ 43.0256, 42.1034 ], [ 43.024, 42.1035 ], [ 43.0232, 42.1037 ], [ 43.0212, 42.1015 ], [ 43.016, 42.1036 ], [ 43.0152, 42.1038 ], [ 43.0144, 42.104 ], [ 43.014, 42.1017 ], [ 43.0116, 42.1021 ], [ 43.011, 42.1015 ], [ 43.0107, 42.1011 ], [ 43.0106, 42.1002 ], [ 43.0104, 42.1001 ], [ 43.01, 42.0995 ], [ 43.0094, 42.0982 ], [ 43.0087, 42.1019 ], [ 43.0084, 42.1039 ], [ 43.0051, 42.1051 ], [ 43.0042, 42.1062 ], [ 42.9947, 42.1117 ], [ 42.9941, 42.112 ], [ 42.9909, 42.1171 ], [ 42.9898, 42.1187 ], [ 42.9869, 42.1163 ], [ 42.9857, 42.1125 ], [ 42.984, 42.1168 ], [ 42.984, 42.1174 ], [ 42.9825, 42.1178 ], [ 42.9824, 42.1173 ], [ 42.9823, 42.1173 ], [ 42.9823, 42.1168 ], [ 42.9815, 42.1164 ], [ 42.9803, 42.1162 ], [ 42.9799, 42.1189 ], [ 42.9786, 42.1188 ], [ 42.9755, 42.1203 ], [ 42.9739, 42.1202 ], [ 42.9733, 42.1198 ], [ 42.973, 42.1201 ], [ 42.9722, 42.1188 ], [ 42.9709, 42.1195 ], [ 42.9708, 42.1193 ], [ 42.967, 42.1185 ], [ 42.9664, 42.1184 ], [ 42.9675, 42.1106 ], [ 42.967, 42.1098 ], [ 42.9665, 42.109 ], [ 42.962, 42.113 ], [ 42.9613, 42.1122 ], [ 42.9579, 42.1129 ], [ 42.9577, 42.1137 ], [ 42.9541, 42.1131 ], [ 42.9533, 42.1172 ], [ 42.9524, 42.1175 ], [ 42.9519, 42.1172 ], [ 42.9516, 42.1169 ], [ 42.9515, 42.1169 ], [ 42.9515, 42.1166 ], [ 42.9499, 42.1173 ], [ 42.9378, 42.1283 ], [ 42.9354, 42.13 ], [ 42.9348, 42.1306 ], [ 42.9328, 42.1281 ], [ 42.9226, 42.1267 ], [ 42.9121, 42.1004 ], [ 42.907, 42.1012 ], [ 42.9067, 42.1012 ], [ 42.9063, 42.1013 ], [ 42.9061, 42.1013 ], [ 42.9057, 42.1013 ], [ 42.9054, 42.1012 ], [ 42.9053, 42.1012 ], [ 42.9051, 42.1012 ], [ 42.9052, 42.1005 ], [ 42.9052, 42.1003 ], [ 42.9052, 42.1002 ], [ 42.9055, 42.1001 ], [ 42.9057, 42.1 ], [ 42.9055, 42.0993 ], [ 42.905, 42.0992 ], [ 42.905, 42.0989 ], [ 42.9052, 42.0986 ], [ 42.9052, 42.0985 ], [ 42.9052, 42.0976 ], [ 42.9051, 42.0974 ], [ 42.9049, 42.0974 ], [ 42.905, 42.0985 ], [ 42.9044, 42.0989 ], [ 42.9045, 42.099 ], [ 42.9041, 42.0995 ], [ 42.9034, 42.1005 ], [ 42.9033, 42.1005 ], [ 42.903, 42.1003 ], [ 42.9029, 42.1002 ], [ 42.9023, 42.1006 ], [ 42.9021, 42.1006 ], [ 42.9019, 42.1004 ], [ 42.9019, 42.1007 ], [ 42.9019, 42.1008 ], [ 42.9018, 42.1012 ], [ 42.9017, 42.1014 ], [ 42.9016, 42.1014 ], [ 42.9012, 42.1013 ], [ 42.9009, 42.1011 ], [ 42.9006, 42.101 ], [ 42.9004, 42.1009 ], [ 42.9, 42.1006 ], [ 42.8998, 42.1005 ], [ 42.8995, 42.1004 ], [ 42.8994, 42.1003 ], [ 42.8983, 42.0999 ], [ 42.8982, 42.0999 ], [ 42.8977, 42.0998 ], [ 42.8975, 42.0998 ], [ 42.8974, 42.0998 ], [ 42.8973, 42.0991 ], [ 42.8973, 42.099 ], [ 42.8972, 42.0984 ], [ 42.8974, 42.0983 ], [ 42.8975, 42.0981 ], [ 42.8977, 42.098 ], [ 42.8974, 42.0963 ], [ 42.8946, 42.0964 ], [ 42.8943, 42.0966 ], [ 42.894, 42.0967 ], [ 42.8931, 42.0956 ], [ 42.8933, 42.0952 ], [ 42.8931, 42.095 ], [ 42.8928, 42.0951 ], [ 42.8926, 42.0939 ], [ 42.8923, 42.0936 ], [ 42.892, 42.0935 ], [ 42.8918, 42.0935 ], [ 42.8842, 42.0956 ], [ 42.8825, 42.0949 ], [ 42.8815, 42.094 ], [ 42.8815, 42.0939 ], [ 42.8815, 42.0938 ], [ 42.8814, 42.0937 ], [ 42.8813, 42.0937 ], [ 42.8812, 42.0937 ], [ 42.8811, 42.0937 ], [ 42.8809, 42.0936 ], [ 42.8808, 42.0935 ], [ 42.8806, 42.0933 ], [ 42.8805, 42.0933 ], [ 42.8804, 42.0932 ], [ 42.8803, 42.0931 ], [ 42.878, 42.0955 ], [ 42.8779, 42.0956 ], [ 42.8758, 42.0966 ], [ 42.8747, 42.096 ], [ 42.8724, 42.0985 ], [ 42.871, 42.099 ], [ 42.8709, 42.0991 ], [ 42.8706, 42.0994 ], [ 42.8698, 42.099 ], [ 42.8691, 42.098 ], [ 42.8688, 42.0966 ], [ 42.8687, 42.0966 ], [ 42.8684, 42.0967 ], [ 42.8675, 42.0968 ], [ 42.8662, 42.0953 ], [ 42.8653, 42.0945 ], [ 42.865, 42.0911 ], [ 42.8642, 42.0908 ], [ 42.8662, 42.0877 ], [ 42.8676, 42.087 ], [ 42.8674, 42.087 ], [ 42.8667, 42.0872 ], [ 42.8665, 42.0873 ], [ 42.8664, 42.0874 ], [ 42.866, 42.0877 ], [ 42.8638, 42.0876 ], [ 42.8623, 42.0876 ], [ 42.8616, 42.0857 ], [ 42.8608, 42.0846 ], [ 42.8601, 42.0835 ], [ 42.8619, 42.0805 ], [ 42.8619, 42.0802 ], [ 42.8617, 42.0799 ], [ 42.8617, 42.0791 ], [ 42.8616, 42.0788 ], [ 42.8584, 42.0777 ], [ 42.8583, 42.0772 ], [ 42.8507, 42.0553 ], [ 42.8513, 42.0549 ], [ 42.8515, 42.0547 ], [ 42.8584, 42.049 ], [ 42.8534, 42.0041 ], [ 42.8452, 42.0082 ], [ 42.8442, 42.0073 ], [ 42.8408, 42.0092 ], [ 42.834, 42.0153 ], [ 42.834, 42.0154 ], [ 42.8321, 42.0171 ], [ 42.8313, 42.0165 ], [ 42.8303, 42.0163 ], [ 42.8301, 42.0166 ], [ 42.8292, 42.0168 ], [ 42.8272, 42.0191 ], [ 42.8235, 42.0218 ], [ 42.8226, 42.0211 ], [ 42.816, 42.0167 ], [ 42.8152, 42.0149 ], [ 42.8149, 42.0143 ], [ 42.815, 42.0141 ], [ 42.815, 42.0139 ], [ 42.8134, 42.0148 ], [ 42.8073, 42.0334 ], [ 42.808, 42.0339 ], [ 42.8111, 42.0394 ], [ 42.8109, 42.0396 ], [ 42.804, 42.0578 ], [ 42.8025, 42.0587 ], [ 42.8025, 42.0593 ], [ 42.7993, 42.0609 ], [ 42.7969, 42.06 ], [ 42.7954, 42.0612 ], [ 42.7938, 42.0614 ], [ 42.7909, 42.0629 ], [ 42.7889, 42.062 ], [ 42.7822, 42.0649 ], [ 42.7793, 42.0658 ], [ 42.7747, 42.0652 ], [ 42.7698, 42.0651 ], [ 42.7668, 42.0693 ], [ 42.7671, 42.0703 ], [ 42.7645, 42.0723 ], [ 42.7635, 42.0725 ], [ 42.7573, 42.0763 ], [ 42.7524, 42.0781 ], [ 42.7493, 42.0778 ], [ 42.7481, 42.0759 ], [ 42.7384, 42.0784 ], [ 42.738, 42.0791 ], [ 42.7356, 42.0772 ], [ 42.7323, 42.075 ], [ 42.7319, 42.0733 ], [ 42.7326, 42.072 ], [ 42.7317, 42.0719 ], [ 42.7309, 42.0708 ], [ 42.7302, 42.0706 ], [ 42.7304, 42.0692 ], [ 42.7189, 42.057 ], [ 42.7171, 42.0617 ], [ 42.7153, 42.0622 ], [ 42.7138, 42.0637 ], [ 42.7131, 42.0629 ], [ 42.7093, 42.0626 ], [ 42.7058, 42.0638 ], [ 42.7053, 42.0643 ], [ 42.7037, 42.0623 ], [ 42.7034, 42.0572 ], [ 42.6986, 42.059 ], [ 42.6944, 42.0578 ], [ 42.6951, 42.0562 ], [ 42.6923, 42.0581 ], [ 42.6907, 42.0577 ], [ 42.6906, 42.058 ], [ 42.6859, 42.0602 ], [ 42.6856, 42.0592 ], [ 42.6814, 42.0592 ], [ 42.6773, 42.0575 ], [ 42.6746, 42.0588 ], [ 42.6691, 42.059 ], [ 42.6677, 42.0637 ], [ 42.6672, 42.0637 ], [ 42.6673, 42.064 ], [ 42.6664, 42.0644 ], [ 42.6647, 42.0637 ], [ 42.6651, 42.0632 ], [ 42.6639, 42.062 ], [ 42.6641, 42.0613 ], [ 42.6635, 42.0608 ], [ 42.6632, 42.0604 ], [ 42.6617, 42.0602 ], [ 42.659, 42.0589 ], [ 42.6588, 42.0583 ], [ 42.6566, 42.057 ], [ 42.6657, 42.0458 ], [ 42.666, 42.0447 ], [ 42.6637, 42.0356 ], [ 42.6635, 42.0357 ], [ 42.6608, 42.0369 ], [ 42.6593, 42.0365 ], [ 42.6589, 42.0374 ], [ 42.6577, 42.0386 ], [ 42.6512, 42.0378 ], [ 42.6489, 42.0402 ], [ 42.6308, 42.0292 ], [ 42.6283, 42.0264 ], [ 42.627, 42.0278 ], [ 42.6233, 42.0245 ], [ 42.6191, 42.0252 ], [ 42.6177, 42.0254 ], [ 42.6165, 42.0259 ], [ 42.6152, 42.0249 ], [ 42.6151, 42.0265 ], [ 42.6144, 42.0275 ], [ 42.6143, 42.0275 ], [ 42.6142, 42.0274 ], [ 42.6134, 42.0273 ], [ 42.6119, 42.0276 ], [ 42.6075, 42.0242 ], [ 42.6075, 42.0216 ], [ 42.6058, 42.02 ], [ 42.6015, 42.0228 ], [ 42.5993, 42.023 ], [ 42.5907, 42.0221 ], [ 42.5853, 42.0197 ], [ 42.5845, 42.0176 ], [ 42.5843, 42.0175 ], [ 42.5798, 42.0163 ], [ 42.5763, 42.0181 ], [ 42.5751, 42.0089 ], [ 42.5756, 42.0055 ], [ 42.5722, 42.0071 ], [ 42.5705, 42.0075 ], [ 42.5561, 42.0107 ], [ 42.5523, 42.0084 ], [ 42.5162, 41.9514 ], [ 42.5108, 41.9458 ], [ 42.4997, 41.9461 ], [ 42.4999, 41.9427 ], [ 42.4977, 41.9437 ], [ 42.4963, 41.9426 ], [ 42.4948, 41.941 ], [ 42.4949, 41.9379 ], [ 42.5079, 41.8895 ], [ 42.4859, 41.8762 ], [ 42.4594, 41.8854 ], [ 42.4569, 41.8864 ], [ 42.4567, 41.8862 ], [ 42.4555, 41.8874 ], [ 42.4474, 41.8853 ], [ 42.4448, 41.8883 ], [ 42.4466, 41.8905 ], [ 42.448, 41.891 ], [ 42.448, 41.892 ], [ 42.4461, 41.8952 ], [ 42.4448, 41.8958 ], [ 42.4442, 41.8957 ], [ 42.4429, 41.8948 ], [ 42.4426, 41.8951 ], [ 42.442, 41.8942 ], [ 42.4382, 41.8938 ], [ 42.4375, 41.8938 ], [ 42.4349, 41.8942 ], [ 42.4347, 41.8939 ], [ 42.4326, 41.8951 ], [ 42.429, 41.8931 ], [ 42.4195, 41.894 ], [ 42.3885, 41.8949 ], [ 42.3851, 41.8935 ], [ 42.3846, 41.894 ], [ 42.3728, 41.8958 ], [ 42.3718, 41.8642 ], [ 42.3569, 41.8656 ], [ 42.3571, 41.8617 ], [ 42.3573, 41.861 ], [ 42.3572, 41.8609 ], [ 42.3814, 41.6845 ], [ 42.379, 41.6846 ], [ 42.3788, 41.6847 ], [ 42.3783, 41.6846 ], [ 42.3751, 41.6827 ], [ 42.3744, 41.6825 ], [ 42.3739, 41.6821 ], [ 42.3731, 41.681 ], [ 42.3697, 41.6794 ], [ 42.3686, 41.6802 ], [ 42.3628, 41.6804 ], [ 42.3626, 41.6793 ], [ 42.3625, 41.6786 ], [ 42.3629, 41.677 ], [ 42.3626, 41.6761 ], [ 42.3622, 41.676 ], [ 42.3625, 41.6751 ], [ 42.3591, 41.675 ], [ 42.358, 41.6756 ], [ 42.3571, 41.676 ], [ 42.3567, 41.6729 ], [ 42.3547, 41.6696 ], [ 42.3539, 41.6688 ], [ 42.353, 41.6674 ], [ 42.3539, 41.6652 ], [ 42.3534, 41.6643 ], [ 42.3593, 41.6588 ], [ 42.3597, 41.6576 ], [ 42.3604, 41.6555 ], [ 42.3642, 41.6538 ], [ 42.3643, 41.6524 ], [ 42.3707, 41.6497 ], [ 42.3715, 41.6463 ], [ 42.3723, 41.6465 ], [ 42.3733, 41.6453 ], [ 42.3766, 41.6453 ], [ 42.3776, 41.6439 ], [ 42.3813, 41.6441 ], [ 42.3823, 41.6419 ], [ 42.3819, 41.6414 ], [ 42.383, 41.6406 ], [ 42.3881, 41.6351 ], [ 42.3892, 41.6339 ], [ 42.3905, 41.6331 ], [ 42.3918, 41.6329 ], [ 42.3938, 41.6321 ], [ 42.3948, 41.6334 ], [ 42.3992, 41.6357 ], [ 42.4036, 41.6349 ], [ 42.3964, 41.6327 ], [ 42.3965, 41.6308 ], [ 42.3943, 41.6288 ], [ 42.3941, 41.6274 ], [ 42.395, 41.6259 ], [ 42.3866, 41.6273 ], [ 42.3851, 41.6331 ], [ 42.381, 41.6366 ], [ 42.3789, 41.6365 ], [ 42.3771, 41.6428 ], [ 42.3756, 41.6441 ], [ 42.3741, 41.6439 ], [ 42.3735, 41.6429 ], [ 42.3731, 41.6432 ], [ 42.3714, 41.6434 ], [ 42.3702, 41.6428 ], [ 42.3689, 41.6413 ], [ 42.3468, 41.5835 ], [ 42.3465, 41.5834 ], [ 42.3452, 41.5837 ], [ 42.3364, 41.5794 ], [ 42.3359, 41.5802 ], [ 42.3348, 41.58 ], [ 42.3308, 41.5805 ], [ 42.3296, 41.5803 ], [ 42.3292, 41.5802 ], [ 42.3296, 41.581 ], [ 42.3286, 41.582 ], [ 42.3279, 41.5818 ], [ 42.3262, 41.5817 ], [ 42.3261, 41.5817 ], [ 42.325, 41.5821 ], [ 42.3255, 41.585 ], [ 42.3247, 41.5857 ], [ 42.3236, 41.5867 ], [ 42.3201, 41.5873 ], [ 42.316, 41.5893 ], [ 42.3151, 41.5877 ], [ 42.3016, 41.5692 ], [ 42.3007, 41.5682 ], [ 42.3, 41.5675 ], [ 42.3005, 41.5654 ], [ 42.2981, 41.5558 ], [ 42.292, 41.5599 ], [ 42.2921, 41.5606 ], [ 42.2921, 41.561 ], [ 42.2918, 41.5617 ], [ 42.2905, 41.5613 ], [ 42.2899, 41.5611 ], [ 42.2887, 41.5606 ], [ 42.2877, 41.5611 ], [ 42.2874, 41.5609 ], [ 42.2863, 41.5605 ], [ 42.2855, 41.5622 ], [ 42.2855, 41.5625 ], [ 42.2859, 41.5631 ], [ 42.2891, 41.565 ], [ 42.2887, 41.5676 ], [ 42.2837, 41.5729 ], [ 42.2837, 41.5733 ], [ 42.2783, 41.5731 ], [ 42.2687, 41.5738 ], [ 42.266, 41.5753 ], [ 42.2659, 41.5755 ], [ 42.2538, 41.5806 ], [ 42.2532, 41.5763 ], [ 42.2517, 41.5745 ], [ 42.2503, 41.5748 ], [ 42.2495, 41.5745 ], [ 42.2485, 41.5746 ], [ 42.2474, 41.5745 ], [ 42.2457, 41.5739 ], [ 42.2453, 41.5735 ], [ 42.2441, 41.573 ], [ 42.2432, 41.5666 ], [ 42.2428, 41.5697 ], [ 42.2371, 41.5731 ], [ 42.2351, 41.5762 ], [ 42.2343, 41.5762 ], [ 42.2334, 41.5759 ], [ 42.2328, 41.5761 ], [ 42.2286, 41.5753 ], [ 42.2247, 41.5768 ], [ 42.2244, 41.5764 ], [ 42.2232, 41.5758 ], [ 42.2154, 41.5694 ], [ 42.2083, 41.5715 ], [ 42.208, 41.5742 ], [ 42.2078, 41.5748 ], [ 42.2092, 41.5776 ], [ 42.209, 41.5782 ], [ 42.1982, 41.5844 ], [ 42.1969, 41.5846 ], [ 42.1959, 41.5818 ], [ 42.1948, 41.5835 ], [ 42.1942, 41.5849 ], [ 42.1938, 41.5846 ], [ 42.1935, 41.5851 ], [ 42.1936, 41.5854 ], [ 42.1924, 41.5861 ], [ 42.1923, 41.5862 ], [ 42.1907, 41.5855 ], [ 42.1903, 41.5858 ], [ 42.1897, 41.585 ], [ 42.1893, 41.5847 ], [ 42.1882, 41.5838 ], [ 42.1741, 41.5708 ], [ 42.1698, 41.5565 ], [ 42.1664, 41.556 ], [ 42.1653, 41.5574 ], [ 42.1644, 41.5572 ], [ 42.1618, 41.5574 ], [ 42.161, 41.5581 ], [ 42.1598, 41.5586 ], [ 42.1597, 41.5589 ], [ 42.1587, 41.5583 ], [ 42.1587, 41.5549 ], [ 42.1587, 41.5542 ], [ 42.1558, 41.5538 ], [ 42.1543, 41.5551 ], [ 42.1533, 41.555 ], [ 42.1524, 41.5565 ], [ 42.1449, 41.5592 ], [ 42.1386, 41.5664 ], [ 42.1364, 41.5698 ], [ 42.1343, 41.5705 ], [ 42.1312, 41.5757 ], [ 42.1176, 41.561 ], [ 42.1173, 41.5604 ], [ 42.1162, 41.5577 ], [ 42.1154, 41.5579 ], [ 42.1151, 41.5575 ], [ 42.1121, 41.5548 ], [ 42.1101, 41.5534 ], [ 42.1066, 41.5469 ], [ 42.1063, 41.5467 ], [ 42.1064, 41.5453 ], [ 42.1058, 41.5453 ], [ 42.091, 41.5496 ], [ 42.0853, 41.555 ], [ 42.0804, 41.5597 ], [ 42.0685, 41.5428 ], [ 42.0674, 41.5294 ], [ 42.0725, 41.5202 ], [ 42.0703, 41.5126 ], [ 42.0529, 41.5167 ], [ 42.0429, 41.5163 ], [ 42.0418, 41.529 ], [ 41.9946, 41.5207 ], [ 41.9751, 41.528 ], [ 41.975, 41.5282 ], [ 41.9695, 41.5274 ], [ 41.9682, 41.5291 ], [ 41.9593, 41.5307 ], [ 41.945, 41.5247 ], [ 41.9038, 41.4846 ], [ 41.9012, 41.4831 ], [ 41.9008, 41.4812 ], [ 41.9007, 41.4785 ], [ 41.8993, 41.4779 ], [ 41.8989, 41.4779 ], [ 41.8989, 41.4766 ], [ 41.8981, 41.4745 ], [ 41.8988, 41.4742 ], [ 41.9014, 41.4699 ], [ 41.8963, 41.47 ], [ 41.8931, 41.4675 ], [ 41.8893, 41.4639 ], [ 41.8892, 41.464 ], [ 41.893, 41.4703 ], [ 41.8762, 41.4779 ], [ 41.8715, 41.4741 ], [ 41.8595, 41.4682 ], [ 41.8573, 41.468 ], [ 41.8557, 41.4684 ], [ 41.8545, 41.4684 ], [ 41.8439, 41.4652 ], [ 41.8117, 41.479 ], [ 41.8104, 41.4809 ], [ 41.8074, 41.4816 ], [ 41.7954, 41.4833 ], [ 41.7933, 41.4815 ], [ 41.7933, 41.4771 ], [ 41.7938, 41.4745 ], [ 41.7932, 41.4737 ], [ 41.7959, 41.4712 ], [ 41.7937, 41.4684 ], [ 41.7938, 41.4672 ], [ 41.7946, 41.4654 ], [ 41.7895, 41.4658 ], [ 41.7822, 41.4641 ], [ 41.7808, 41.4658 ], [ 41.7798, 41.4678 ], [ 41.7829, 41.4952 ], [ 41.7707, 41.506 ], [ 41.7674, 41.5087 ], [ 41.7646, 41.509 ], [ 41.764, 41.5094 ], [ 41.7632, 41.5106 ], [ 41.7629, 41.5105 ], [ 41.7606, 41.5095 ], [ 41.7594, 41.5106 ], [ 41.7573, 41.5077 ], [ 41.7574, 41.5066 ], [ 41.756, 41.5055 ], [ 41.7552, 41.5058 ], [ 41.7542, 41.5047 ], [ 41.754, 41.5045 ], [ 41.7515, 41.5019 ], [ 41.7417, 41.4956 ], [ 41.7364, 41.4927 ], [ 41.7318, 41.4892 ], [ 41.7314, 41.4895 ], [ 41.7302, 41.4885 ], [ 41.7282, 41.4894 ], [ 41.7278, 41.4891 ], [ 41.7261, 41.4873 ], [ 41.7254, 41.488 ], [ 41.723, 41.4869 ], [ 41.7214, 41.4853 ], [ 41.72, 41.4846 ], [ 41.7194, 41.4848 ], [ 41.7191, 41.4829 ], [ 41.7188, 41.482 ], [ 41.7154, 41.4795 ], [ 41.7181, 41.483 ], [ 41.718, 41.4847 ], [ 41.7193, 41.4854 ], [ 41.7175, 41.4882 ], [ 41.7175, 41.4886 ], [ 41.7175, 41.4887 ], [ 41.7182, 41.4888 ], [ 41.7183, 41.4887 ], [ 41.719, 41.4891 ], [ 41.7182, 41.4909 ], [ 41.7191, 41.4933 ], [ 41.7172, 41.4961 ], [ 41.7149, 41.4965 ], [ 41.7155, 41.4999 ], [ 41.7145, 41.5008 ], [ 41.7126, 41.5012 ], [ 41.7126, 41.5014 ], [ 41.7119, 41.5022 ], [ 41.7116, 41.5018 ], [ 41.7115, 41.5013 ], [ 41.7089, 41.5024 ], [ 41.709, 41.5034 ], [ 41.7085, 41.5039 ], [ 41.7067, 41.5027 ], [ 41.7058, 41.4978 ], [ 41.7032, 41.4986 ], [ 41.6975, 41.4956 ], [ 41.697, 41.497 ], [ 41.6936, 41.4978 ], [ 41.6929, 41.4975 ], [ 41.6911, 41.4976 ], [ 41.6906, 41.4973 ], [ 41.6889, 41.4999 ], [ 41.6869, 41.4994 ], [ 41.6927, 41.5303 ], [ 41.6848, 41.5354 ], [ 41.6848, 41.5379 ], [ 41.685, 41.5384 ], [ 41.6851, 41.5389 ], [ 41.685, 41.539 ], [ 41.6776, 41.5411 ], [ 41.6735, 41.5421 ], [ 41.673, 41.5423 ], [ 41.6699, 41.541 ], [ 41.669, 41.5401 ], [ 41.6671, 41.5387 ], [ 41.6647, 41.5396 ], [ 41.6612, 41.5406 ], [ 41.6554, 41.5357 ], [ 41.6546, 41.5345 ], [ 41.6448, 41.5277 ], [ 41.6338, 41.5288 ], [ 41.6337, 41.5297 ], [ 41.6337, 41.5298 ], [ 41.6346, 41.5303 ], [ 41.6313, 41.5353 ], [ 41.6127, 41.5278 ], [ 41.5935, 41.5117 ], [ 41.5902, 41.5108 ], [ 41.5885, 41.5095 ], [ 41.5841, 41.5095 ], [ 41.5781, 41.5191 ], [ 41.5754, 41.5158 ], [ 41.572, 41.5183 ], [ 41.571, 41.5191 ], [ 41.5706, 41.5212 ], [ 41.5613, 41.5209 ], [ 41.561, 41.5199 ], [ 41.5604, 41.5164 ], [ 41.5591, 41.5173 ], [ 41.5541, 41.5199 ], [ 41.5536, 41.52 ], [ 41.5531, 41.5192 ], [ 41.5524, 41.5182 ], [ 41.5523, 41.5179 ], [ 41.553, 41.5163 ], [ 41.5528, 41.5136 ], [ 41.5508, 41.5122 ] ] ] } }
]
}
